{"type":"FeatureCollection","features":[{"geometry":{"type":"Point","coordinates":[77.6010688,12.8984603]},"type":"Feature","properties":{"addr:street":"Bannerghatta Road","amenity":"restaurant","name":"Snack Corner"}},{"geometry":{"type":"Point","coordinates":[77.6016793,12.8971027]},"type":"Feature","properties":{"amenity":"restaurant","created_by":"JOSM"}},{"geometry":{"type":"Point","coordinates":[77.5985137,12.8922129]},"type":"Feature","properties":{"amenity":"restaurant","cuisine":"indian","name":"Adigas"}},{"geometry":{"type":"Point","coordinates":[77.6731656,12.9164002]},"type":"Feature","properties":{"amenity":"restaurant","created_by":"JOSM","name":"Kusum Delux Seafood"}},{"geometry":{"type":"Point","coordinates":[77.6231479,12.9334352]},"type":"Feature","properties":{"addr:street":"Mahayogi Vemana Road","amenity":"restaurant","name":"Sukh Sagar"}},{"geometry":{"type":"Point","coordinates":[77.6103158,12.9163076]},"type":"Feature","properties":{"addr:city":"BTM Layout, Bangalore","addr:housenumber":72,"addr:street":"2nd Stage, 16th Main","amenity":"restaurant","name":"Udupi Garden","phone":"+91-80-26680872"}},{"geometry":{"type":"Point","coordinates":[77.6707326,12.9184797]},"type":"Feature","properties":{"amenity":"restaurant","created_by":"Potlatch 0.10e","name":"Shree Sagar"}},{"geometry":{"type":"Point","coordinates":[77.7502633,12.8835332]},"type":"Feature","properties":{"amenity":"restaurant","name":"Amruth Park Land"}},{"geometry":{"type":"Point","coordinates":[77.6385011,12.9606568]},"type":"Feature","properties":{"amenity":"restaurant","food":"veg","name":"Shanti Sagar"}},{"geometry":{"type":"Point","coordinates":[77.6419773,12.9619115]},"type":"Feature","properties":{"addr:street":"100 Feet Road","amenity":"restaurant","name":"Nandhini","wheelchair":"no"}},{"geometry":{"type":"Point","coordinates":[77.6411692,12.9558995]},"type":"Feature","properties":{"amenity":"restaurant","created_by":"Potlatch 0.10f","name":"Nandhana"}},{"geometry":{"type":"Point","coordinates":[77.5752942,12.9741901]},"type":"Feature","properties":{"amenity":"restaurant","created_by":"Potlatch 0.10f","name":"Sukh Sagar"}},{"geometry":{"type":"Point","coordinates":[77.6383211,12.9651393]},"type":"Feature","properties":{"amenity":"restaurant","name":"Bhagini"}},{"geometry":{"type":"Point","coordinates":[77.6403936,12.9637134]},"type":"Feature","properties":{"addr:street":"Indiranagar Double Road","amenity":"restaurant","name":"Subway"}},{"geometry":{"type":"Point","coordinates":[77.5928828,12.9545906]},"type":"Feature","properties":{"amenity":"restaurant","created_by":"Potlatch 0.10f","name":"Kadamba Veg"}},{"geometry":{"type":"Point","coordinates":[77.6014338,12.9757076]},"type":"Feature","properties":{"addr:street":"Saint Mark's Road","amenity":"restaurant","name":"Koshy's"}},{"geometry":{"type":"Point","coordinates":[77.6328487,13.0240649]},"type":"Feature","properties":{"amenity":"restaurant","created_by":"Potlatch 0.10f","cuisine":"punjabi","name":"Tashan"}},{"geometry":{"type":"Point","coordinates":[77.614002,13.0425174]},"type":"Feature","properties":{"amenity":"restaurant","name":"Hotel Garden"}},{"geometry":{"type":"Point","coordinates":[77.640632,12.9782249]},"type":"Feature","properties":{"addr:street":"100 Feet Road","amenity":"restaurant","cuisine":"pizza","name":"Pizza Hut"}},{"geometry":{"type":"Point","coordinates":[77.6411955,12.9755358]},"type":"Feature","properties":{"addr:street":"100 Feet Road","amenity":"restaurant","cuisine":"pizza","name":"Pizza Corner"}},{"geometry":{"type":"Point","coordinates":[77.6411309,12.9754733]},"type":"Feature","properties":{"addr:street":"100 Feet Road","amenity":"restaurant","cuisine":"indian","name":"Annachi"}},{"geometry":{"type":"Point","coordinates":[77.6411673,12.9754995]},"type":"Feature","properties":{"addr:street":"100 Feet Road","amenity":"restaurant","cuisine":"indian","name":"The Vil'age"}},{"geometry":{"type":"Point","coordinates":[77.6020146,12.9686259]},"type":"Feature","properties":{"amenity":"restaurant","cuisine":"indian","name":"Konark"}},{"geometry":{"type":"Point","coordinates":[77.547547,13.0492109]},"type":"Feature","properties":{"amenity":"restaurant","name":"Kamat Nandanvan"}},{"geometry":{"type":"Point","coordinates":[77.600912,12.9720275]},"type":"Feature","properties":{"addr:street":"Saint Mark's Road","amenity":"restaurant","cuisine":"american","name":"Ice+Spice"}},{"geometry":{"type":"Point","coordinates":[77.5722236,12.9777721]},"type":"Feature","properties":{"amenity":"restaurant"}},{"geometry":{"type":"Point","coordinates":[77.5763577,12.9760075]},"type":"Feature","properties":{"amenity":"restaurant","name":"Anand Sagar Punjabi Dhaba"}},{"geometry":{"type":"Point","coordinates":[77.5854279,12.9550389]},"type":"Feature","properties":{"addr:street":"Lalbagh Road","amenity":"restaurant","name":"Mavalli Tiffin Room - MTR"}},{"geometry":{"type":"Point","coordinates":[77.6141032,12.9665538]},"type":"Feature","properties":{"addr:housename":"#8","addr:street":"Victoria Road","amenity":"restaurant","name":"Hyderbadi Biryani"}},{"geometry":{"type":"Point","coordinates":[77.6405519,13.0259923]},"type":"Feature","properties":{"addr:city":"Kalyan Nagar, Bangalore","addr:housename":"Sri Shankar Reddy Building","addr:housenumber":"122/4","addr:postcode":560043,"addr:street":"Outer Ring Road","amenity":"restaurant","name":"Ginger Greens","phone":"+91-80-25434744"}},{"geometry":{"type":"Point","coordinates":[77.5717703,12.9955258]},"type":"Feature","properties":{"amenity":"restaurant","name":"Hallimane"}},{"geometry":{"type":"Point","coordinates":[77.5715961,12.9931291]},"type":"Feature","properties":{"addr:street":"Sampige Road","amenity":"restaurant","name":"Sri Krishna Bhavan"}},{"geometry":{"type":"Point","coordinates":[77.5790952,12.9735558]},"type":"Feature","properties":{"addr:street":"Kempe Gowda Road","amenity":"restaurant","name":"Adigas"}},{"geometry":{"type":"Point","coordinates":[77.6656581,12.8444868]},"type":"Feature","properties":{"amenity":"restaurant","cuisine":"pizza","name":"Dominos","website":"http://www.dominos.co.in/"}},{"geometry":{"type":"Point","coordinates":[77.5712904,13.0055901]},"type":"Feature","properties":{"amenity":"restaurant","cuisine":"indian","name":"Adigas"}},{"geometry":{"type":"Point","coordinates":[77.523507,13.0366303]},"type":"Feature","properties":{"amenity":"restaurant","name":"Sai Palace"}},{"geometry":{"type":"Point","coordinates":[77.6415819,12.9692354]},"type":"Feature","properties":{"addr:city":"Indira Nagar, Bangalore","addr:street":"100 Feet Road","amenity":"restaurant","cuisine":"italian","name":"Little Italy","website":"http://littleitaly.in"}},{"geometry":{"type":"Point","coordinates":[77.6999246,12.9504549]},"type":"Feature","properties":{"addr:city":"Marathahalli, Bangalore","addr:housename":"Sri Sapthagiri Complex","addr:housenumber":"90/3","addr:postcode":560034,"addr:street":"Outer Ring Road (Opp. Innovative Multiplex)","amenity":"restaurant","cuisine":"chinese","name":"Yo China","phone":"+91-80-40980666","website":"http://www.yo-china.com/"}},{"geometry":{"type":"Point","coordinates":[77.5774664,12.9514039]},"type":"Feature","properties":{"amenity":"restaurant"}},{"geometry":{"type":"Point","coordinates":[77.5776847,12.9509075]},"type":"Feature","properties":{"amenity":"restaurant"}},{"geometry":{"type":"Point","coordinates":[77.5786753,12.9506894]},"type":"Feature","properties":{"amenity":"restaurant"}},{"geometry":{"type":"Point","coordinates":[77.5785913,12.9505258]},"type":"Feature","properties":{"amenity":"restaurant"}},{"geometry":{"type":"Point","coordinates":[77.5784906,12.9507057]},"type":"Feature","properties":{"amenity":"restaurant"}},{"geometry":{"type":"Point","coordinates":[77.5782275,12.9506021]},"type":"Feature","properties":{"amenity":"restaurant"}},{"geometry":{"type":"Point","coordinates":[77.5771139,12.9517038]},"type":"Feature","properties":{"amenity":"restaurant"}},{"geometry":{"type":"Point","coordinates":[77.5897955,12.9522306]},"type":"Feature","properties":{"amenity":"restaurant"}},{"geometry":{"type":"Point","coordinates":[77.5396211,12.9951833]},"type":"Feature","properties":{"addr:city":"Basaveshwara Nagar, Bangalore","addr:street":"WOC Road","amenity":"restaurant","name":"Guru Sagar Hotel"}},{"geometry":{"type":"Point","coordinates":[77.5728704,13.0280626]},"type":"Feature","properties":{"amenity":"restaurant","name":"Hav Mor"}},{"geometry":{"type":"Point","coordinates":[77.5973166,12.9950931]},"type":"Feature","properties":{"amenity":"restaurant","name":"Jayamahal Palace"}},{"geometry":{"type":"Point","coordinates":[77.6135844,12.932679]},"type":"Feature","properties":{"addr:street":"Hosur Road","amenity":"restaurant","cuisine":"indian","name":"Hyderabad House","speciality":"biriyani"}},{"geometry":{"type":"Point","coordinates":[77.5929937,12.9897552]},"type":"Feature","properties":{"amenity":"restaurant","name":"Hotel Chandrika"}},{"geometry":{"type":"Point","coordinates":[77.5957651,12.9932336]},"type":"Feature","properties":{"amenity":"restaurant","name":"Nandhini Andhra Hotel"}},{"geometry":{"type":"Point","coordinates":[77.5959522,12.9930635]},"type":"Feature","properties":{"amenity":"restaurant","name":"Pai Vihar"}},{"geometry":{"type":"Point","coordinates":[77.5722985,12.9901236]},"type":"Feature","properties":{"amenity":"restaurant","name":"Vishnu Sagar"}},{"geometry":{"type":"Point","coordinates":[77.6382904,12.9603346]},"type":"Feature","properties":{"amenity":"restaurant","food":"nveg","name":"MintLeaf"}},{"geometry":{"type":"Point","coordinates":[77.5572955,13.0192135]},"type":"Feature","properties":{"addr:street":"Suberdar Chatram Road","amenity":"restaurant","name":"Emirates"}},{"geometry":{"type":"Point","coordinates":[77.5351758,13.0323569]},"type":"Feature","properties":{"amenity":"restaurant","name":"CMTI Canteen"}},{"geometry":{"type":"Point","coordinates":[77.5352402,13.0304754]},"type":"Feature","properties":{"amenity":"restaurant","name":"KLE Canteen"}},{"geometry":{"type":"Point","coordinates":[77.7127571,12.9558467]},"type":"Feature","properties":{"addr:street":"Airport Road (Near Marathahalli Bridge)","amenity":"restaurant","cuisine":"indian","name":"Golconda Chimney","phone":"+91 80 30623434"}},{"geometry":{"type":"Point","coordinates":[77.5516404,13.0520697]},"type":"Feature","properties":{"amenity":"restaurant","name":"Barath"}},{"geometry":{"type":"Point","coordinates":[77.5839069,12.930889]},"type":"Feature","properties":{"amenity":"restaurant","name":"Ganesh Darshan"}},{"geometry":{"type":"Point","coordinates":[77.584454,12.9329306]},"type":"Feature","properties":{"amenity":"restaurant","cuisine":"vegetarian","name":"Upahara Darshini"}},{"geometry":{"type":"Point","coordinates":[77.5843097,12.932939]},"type":"Feature","properties":{"amenity":"restaurant","cuisine":"indian","name":"Nagarjuna Chimney"}},{"geometry":{"type":"Point","coordinates":[77.5848245,12.9261789]},"type":"Feature","properties":{"amenity":"restaurant","cuisine":"italian","name":"La Casa"}},{"geometry":{"type":"Point","coordinates":[77.6034167,12.9732771]},"type":"Feature","properties":{"addr:housenumber":13,"addr:street":"Museum Road","amenity":"restaurant","name":"The Only Place","phone":"+91-80-32718989","wheelchair":"yes"}},{"geometry":{"type":"Point","coordinates":[77.5440769,13.0489683]},"type":"Feature","properties":{"amenity":"restaurant","name":"Durga Restaurant"}},{"geometry":{"type":"Point","coordinates":[77.5714086,13.0041018]},"type":"Feature","properties":{"addr:street":"Sampige Road","amenity":"restaurant","cuisine":"vegetarian","name":"New Shanthi Sagar"}},{"geometry":{"type":"Point","coordinates":[77.569163,13.0330019]},"type":"Feature","properties":{"amenity":"restaurant","name":"Nandini Palace"}},{"geometry":{"type":"Point","coordinates":[77.5693276,13.0330822]},"type":"Feature","properties":{"amenity":"restaurant","name":"Beijing Bites"}},{"geometry":{"type":"Point","coordinates":[77.5685719,13.0146408]},"type":"Feature","properties":{"amenity":"restaurant","name":"Prakruti"}},{"geometry":{"type":"Point","coordinates":[77.5692433,13.006544]},"type":"Feature","properties":{"amenity":"restaurant","cuisine":"chinese","name":"Chungs"}},{"geometry":{"type":"Point","coordinates":[77.5349348,13.0218399]},"type":"Feature","properties":{"amenity":"restaurant","name":"Sher-e-Punjab Dhaba"}},{"geometry":{"type":"Point","coordinates":[77.5340657,13.0220281]},"type":"Feature","properties":{"amenity":"restaurant","name":"Adarsh Dhaba"}},{"geometry":{"type":"Point","coordinates":[77.569312,13.0380091]},"type":"Feature","properties":{"amenity":"restaurant","name":"RMV Club"}},{"geometry":{"type":"Point","coordinates":[77.5687104,13.0340426]},"type":"Feature","properties":{"amenity":"restaurant","name":"Mayuri"}},{"geometry":{"type":"Point","coordinates":[77.5693049,13.0342524]},"type":"Feature","properties":{"addr:city":"Chikkamaranahalli, Bangalore","addr:housenumber":10,"addr:street":"1st Main Road, New BEL Road","amenity":"restaurant","cuisine":"chinese","name":"Hunan Chinese Restaurant","phone":"+91-80-23413337"}},{"geometry":{"type":"Point","coordinates":[77.5650237,13.0166325]},"type":"Feature","properties":{"amenity":"restaurant","name":"Nesara"}},{"geometry":{"type":"Point","coordinates":[77.5649339,13.0163342]},"type":"Feature","properties":{"amenity":"restaurant","name":"Kabini canteen"}},{"geometry":{"type":"Point","coordinates":[77.5660896,13.0372505]},"type":"Feature","properties":{"amenity":"restaurant","name":"Chicken County"}},{"geometry":{"type":"Point","coordinates":[77.5964092,12.971852]},"type":"Feature","properties":{"amenity":"restaurant","cuisine":"sushi","name":"Shiro"}},{"geometry":{"type":"Point","coordinates":[77.6015444,12.9600242]},"type":"Feature","properties":{"amenity":"restaurant","name":"Sandhya sagar"}},{"geometry":{"type":"Point","coordinates":[77.5945806,12.9601639]},"type":"Feature","properties":{"addr:street":"KH Road (Double Road)","amenity":"restaurant","name":"Utsav"}},{"geometry":{"type":"Point","coordinates":[77.5668792,12.9406555]},"type":"Feature","properties":{"addr:street":"Bull Temple Road","amenity":"restaurant","cuisine":"indian","name":"Kamat Bugle Rock"}},{"geometry":{"type":"Point","coordinates":[77.5711764,12.994359]},"type":"Feature","properties":{"addr:street":"Sampige Road","amenity":"restaurant","name":"Rasa"}},{"geometry":{"type":"Point","coordinates":[77.5785182,13.0055229]},"type":"Feature","properties":{"amenity":"restaurant","cuisine":"italian","name":"Pizza Hut","phone":69886988}},{"geometry":{"type":"Point","coordinates":[77.5765979,13.0275887]},"type":"Feature","properties":{"amenity":"restaurant","name":"Freska"}},{"geometry":{"type":"Point","coordinates":[77.5789439,13.0068412]},"type":"Feature","properties":{"amenity":"restaurant","cuisine":"indian;vegetarian","name":"Mast Kalandar"}},{"geometry":{"type":"Point","coordinates":[77.5770886,13.0271966]},"type":"Feature","properties":{"amenity":"restaurant","cuisine":"indian","name":"Neel"}},{"geometry":{"type":"Point","coordinates":[77.5941489,12.991491]},"type":"Feature","properties":{"amenity":"restaurant","cuisine":"american","name":"Miller's 46"}},{"geometry":{"type":"Point","coordinates":[77.5787894,13.0070953]},"type":"Feature","properties":{"amenity":"restaurant","cuisine":"vegetarian","name":"Mint Masala"}},{"geometry":{"type":"Point","coordinates":[77.5947029,12.9870446]},"type":"Feature","properties":{"addr:street":"Cunningham Road","amenity":"restaurant","name":"Shezan Restaurant"}},{"geometry":{"type":"Point","coordinates":[77.5939709,12.9887157]},"type":"Feature","properties":{"addr:street":"Cunningham Road","amenity":"restaurant","cuisine":"indian","name":"Ramana's"}},{"geometry":{"type":"Point","coordinates":[77.5874248,12.9704007]},"type":"Feature","properties":{"amenity":"restaurant","name":"Trupti"}},{"geometry":{"type":"Point","coordinates":[77.5956392,12.9748503]},"type":"Feature","properties":{"amenity":"restaurant","name":"KSTDC Restaurant"}},{"geometry":{"type":"Point","coordinates":[77.5950408,12.9804373]},"type":"Feature","properties":{"amenity":"restaurant","cuisine":"vegetarian","name":"Canteen"}},{"geometry":{"type":"Point","coordinates":[77.5891031,12.9758502]},"type":"Feature","properties":{"amenity":"restaurant","name":"Parkview Hotel"}},{"geometry":{"type":"Point","coordinates":[77.580199,12.9671651]},"type":"Feature","properties":{"amenity":"restaurant","cuisine":"indian; vegetarian","name":"Chatpat"}},{"geometry":{"type":"Point","coordinates":[77.5800395,12.9703805]},"type":"Feature","properties":{"amenity":"restaurant","cuisine":"indian","name":"Hotel Madhuvan"}},{"geometry":{"type":"Point","coordinates":[77.6026954,12.9795054]},"type":"Feature","properties":{"amenity":"restaurant","cuisine":"indian","name":"Hotel Empire"}},{"geometry":{"type":"Point","coordinates":[77.5971174,12.9846984]},"type":"Feature","properties":{"amenity":"restaurant","cuisine":"indian","name":"Mast Kalandar"}},{"geometry":{"type":"Point","coordinates":[77.5333966,13.0356176]},"type":"Feature","properties":{"amenity":"restaurant","name":"Masala Mantra"}},{"geometry":{"type":"Point","coordinates":[77.5794229,12.9851989]},"type":"Feature","properties":{"amenity":"restaurant","cuisine":"indian","name":"Sana Di Ge"}},{"geometry":{"type":"Point","coordinates":[77.5790907,13.0068783]},"type":"Feature","properties":{"amenity":"restaurant","cuisine":"indian; vegetarian","name":"New Shanthi Sagar"}},{"geometry":{"type":"Point","coordinates":[77.5736842,13.0144093]},"type":"Feature","properties":{"amenity":"restaurant","name":"Nikki's Pub & Restaurant"}},{"geometry":{"type":"Point","coordinates":[77.6007788,12.9711937]},"type":"Feature","properties":{"addr:city":"Bangalore","addr:street":"Saint Mark's Road","amenity":"restaurant","cuisine":"indian","name":"Amruth Vegetarian Restaurant"}},{"geometry":{"type":"Point","coordinates":[77.6030551,12.982738]},"type":"Feature","properties":{"amenity":"restaurant","cuisine":"indian","name":"Hotel Vinitha"}},{"geometry":{"type":"Point","coordinates":[77.570304,12.9772698]},"type":"Feature","properties":{"amenity":"restaurant"}},{"geometry":{"type":"Point","coordinates":[77.5704213,12.9772479]},"type":"Feature","properties":{"amenity":"restaurant"}},{"geometry":{"type":"Point","coordinates":[77.5693878,12.9774742]},"type":"Feature","properties":{"amenity":"restaurant","name":"Comesum"}},{"geometry":{"type":"Point","coordinates":[77.4785554,13.1378317]},"type":"Feature","properties":{"amenity":"restaurant"}},{"geometry":{"type":"Point","coordinates":[77.5628328,13.0152294]},"type":"Feature","properties":{"amenity":"restaurant","name":"Pavillion"}},{"geometry":{"type":"Point","coordinates":[77.6410447,12.9690244]},"type":"Feature","properties":{"addr:city":"Indira Nagar, Bangalore","addr:street":"100 Feet Road","amenity":"restaurant","cuisine":"italian","name":"Medici"}},{"geometry":{"type":"Point","coordinates":[77.6414116,12.9622135]},"type":"Feature","properties":{"addr:street":"100 Feet Road","amenity":"restaurant","name":"Barbeque Nation","wheelchair":"limited"}},{"geometry":{"type":"Point","coordinates":[77.6482773,12.9689154]},"type":"Feature","properties":{"amenity":"restaurant","cuisine":"indian","name":"Pongal"}},{"geometry":{"type":"Point","coordinates":[77.5912444,12.9902114]},"type":"Feature","properties":{"amenity":"restaurant","cuisine":"indian","name":"A Masala House"}},{"geometry":{"type":"Point","coordinates":[77.744885,12.9861246]},"type":"Feature","properties":{"addr:housenumber":49,"addr:postcode":560066,"addr:street":"Near GR Tech Park, Whitefield Main Road","amenity":"restaurant","cuisine":"indian","name":"Spice Ka Tadka","phone":"+91 80 41725625; +91 80  41725626; +91 80  41725627; +91 80  41725628"}},{"geometry":{"type":"Point","coordinates":[77.5934753,13.0273116]},"type":"Feature","properties":{"amenity":"restaurant","name":"Kabab Manor"}},{"geometry":{"type":"Point","coordinates":[77.6051013,12.9753377]},"type":"Feature","properties":{"addr:housenumber":"84 (13th Floor, Barton Center)","addr:street":"M G Road","amenity":"restaurant","cuisine":"indian","name":"Ebony","phone":"+91-80-25589333;+91-80-51783344;+91-80-25588697"}},{"geometry":{"type":"Point","coordinates":[77.6477855,13.0228247]},"type":"Feature","properties":{"amenity":"restaurant","name":"Little Imperial"}},{"geometry":{"type":"Point","coordinates":[77.6743627,12.924585]},"type":"Feature","properties":{"addr:street":"Outer Ring Road","amenity":"restaurant","name":"Cafe Coffee Day"}},{"geometry":{"type":"Point","coordinates":[77.6566135,12.9586468]},"type":"Feature","properties":{"addr:street":"HAL Airport Road","amenity":"restaurant","cuisine":"regional","name":"Hyderabadi biriyani"}},{"geometry":{"type":"Point","coordinates":[77.656474,12.9590546]},"type":"Feature","properties":{"addr:street":"HAL Airport Road","amenity":"restaurant","cuisine":"mexican","name":"Chillis"}},{"geometry":{"type":"Point","coordinates":[77.6473796,12.9699613]},"type":"Feature","properties":{"amenity":"restaurant","cuisine":"indian","name":"Empire"}},{"geometry":{"type":"Point","coordinates":[77.6475481,12.970508]},"type":"Feature","properties":{"amenity":"restaurant","cuisine":"indian","name":"Herbs and Spices"}},{"geometry":{"type":"Point","coordinates":[77.6474409,12.9712608]},"type":"Feature","properties":{"amenity":"restaurant","name":"World Cuisine Network"}},{"geometry":{"type":"Point","coordinates":[77.6149914,12.9149626]},"type":"Feature","properties":{"addr:city":"BTM Layout, Bangalore","addr:street":"29th Main","amenity":"restaurant","name":"Sri Ganesh Food Point"}},{"geometry":{"type":"Point","coordinates":[77.6075616,12.9136711]},"type":"Feature","properties":{"amenity":"restaurant","name":"Mast Kalandar"}},{"geometry":{"type":"Point","coordinates":[77.6077065,12.9136816]},"type":"Feature","properties":{"amenity":"restaurant","name":"Flavour of China"}},{"geometry":{"type":"Point","coordinates":[77.6084146,12.9137391]},"type":"Feature","properties":{"amenity":"restaurant","name":"Flavour of China"}},{"geometry":{"type":"Point","coordinates":[77.6101228,12.9131335]},"type":"Feature","properties":{"amenity":"restaurant","name":"Beijing Bites"}},{"geometry":{"type":"Point","coordinates":[77.6098929,12.9102893]},"type":"Feature","properties":{"amenity":"restaurant","name":"Pakwan"}},{"geometry":{"type":"Point","coordinates":[77.6099456,12.9135311]},"type":"Feature","properties":{"amenity":"restaurant","name":"Chung Wah"}},{"geometry":{"type":"Point","coordinates":[77.6099264,12.9135343]},"type":"Feature","properties":{"amenity":"restaurant","name":"Golmal Paratha"}},{"geometry":{"type":"Point","coordinates":[77.6099924,12.9138914]},"type":"Feature","properties":{"amenity":"restaurant","cuisine":"indian","name":"Gateway Hyderabad"}},{"geometry":{"type":"Point","coordinates":[77.5534116,12.9387161]},"type":"Feature","properties":{"addr:street":"80 Feet Road","amenity":"restaurant","cuisine":"regional","name":"Udupi Upahar"}},{"geometry":{"type":"Point","coordinates":[77.5502503,12.9261046]},"type":"Feature","properties":{"amenity":"restaurant","name":"Anna Kuteera"}},{"geometry":{"type":"Point","coordinates":[77.5534616,12.9237141]},"type":"Feature","properties":{"addr:street":"Outer Ring Road","amenity":"restaurant","name":"Shanthi Theatre"}},{"geometry":{"type":"Point","coordinates":[77.5649097,12.9437007]},"type":"Feature","properties":{"amenity":"restaurant","name":"Ganesh Bhavan"}},{"geometry":{"type":"Point","coordinates":[77.5514879,12.9389117]},"type":"Feature","properties":{"addr:street":"80 Feet Road","amenity":"restaurant","name":"New Sagar Fast Food"}},{"geometry":{"type":"Point","coordinates":[77.7339683,12.9888296]},"type":"Feature","properties":{"addr:city":"Whitefield, Bangalore","addr:housenumber":"3 & 4","addr:postcode":560066,"addr:street":"Sadarmangala Road","amenity":"restaurant","cuisine":"indian","email":"info@nandhini.com","name":"Nandhini Restaurant","phone":"+91-80-41259166","website":"http://www.nandhini.com"}},{"geometry":{"type":"Point","coordinates":[77.57711,13.1008308]},"type":"Feature","properties":{"amenity":"restaurant","cuisine":"chinese","internet_access":"no","name":"Schezwan","opening_hours":"10 am","smoking":"no","stars":2,"wheelchair":"no"}},{"geometry":{"type":"Point","coordinates":[77.5777439,13.1063303]},"type":"Feature","properties":{"amenity":"restaurant","name":"akshaya family restaurant"}},{"geometry":{"type":"Point","coordinates":[77.68645,12.931753]},"type":"Feature","properties":{"addr:city":"Devara Bisnhalli, Bellandur","addr:housenumber":103,"addr:postcode":560037,"amenity":"restaurant","cuisine":"indian","internet_access":"no","name":"Eden Dhaba","phone":"+91-80-65957659;+91-9342571046"}},{"geometry":{"type":"Point","coordinates":[77.6998051,12.9497553]},"type":"Feature","properties":{"addr:city":"Marathahalli, Bangalore","addr:housenumber":"90/4 (1st Floor)","addr:postcode":560037,"addr:street":"Outer Ring Road","amenity":"restaurant","cuisine":"indian","name":"Mast Kalandar","phone":"+91-80-6534 0333;+91-80-6534 0444","website":"http://www.mastkalandar.com"}},{"geometry":{"type":"Point","coordinates":[77.7002977,12.9522442]},"type":"Feature","properties":{"addr:city":"Marathahalli, Bangalore","addr:street":"Outer Ring Road","amenity":"restaurant","cuisine":"indian","name":"Bhagini"}},{"geometry":{"type":"Point","coordinates":[77.710285,12.976948]},"type":"Feature","properties":{"addr:city":"Mahadevapura, Bangalore","addr:housenumber":"7E","addr:postcode":560048,"addr:street":"1st Phase, I.T.P.L Road","amenity":"restaurant","cuisine":"indian","email":"resblr@mapplehotels.com","name":"Mapple","phone":"+91-080-40324032","website":"http://www.mapplehotels.com"}},{"geometry":{"type":"Point","coordinates":[77.7131154,12.9775429]},"type":"Feature","properties":{"addr:city":"Whitefield, Bangalore","addr:street":"2nd Road, EPIP Industrial Area","amenity":"restaurant","cuisine":"indian","email":"radhawhitefieldbangalore@hometel.co.in","fax":"+91 80 6622 6767","name":"Radha Hometel","phone":"+91 80 6622 6969"}},{"geometry":{"type":"Point","coordinates":[77.678189,12.973597]},"type":"Feature","properties":{"addr:street":"Kaggadasspura Main Road","amenity":"restaurant","cuisine":"indian","name":"Ruchi Restaurant"}},{"geometry":{"type":"Point","coordinates":[77.7207261,12.9916553]},"type":"Feature","properties":{"addr:housenumber":956,"addr:postcode":560048,"addr:street":"1st Floor, ITPL Main Road","amenity":"restaurant","cuisine":"indian","name":"Chillys","phone":"+91 80 41487799;+91 80 41725222"}},{"geometry":{"type":"Point","coordinates":[77.7125997,12.989294]},"type":"Feature","properties":{"addr:city":"Whitefield, Bangalore","addr:housenumber":11,"addr:street":"Hoodi Main Road","amenity":"restaurant","cuisine":"indian","name":"Bhagini Restaurant","phone":"+91-80-28540327"}},{"geometry":{"type":"Point","coordinates":[77.7017123,12.9651077]},"type":"Feature","properties":{"addr:city":"Doddanekundi, Marathahalli","addr:housenumber":"95/3","addr:postcode":560037,"addr:street":"Outer Ring Road","amenity":"restaurant","cuisine":"indian","name":"Malgudi","phone":"+91-80-25234166"}},{"geometry":{"type":"Point","coordinates":[77.6954828,12.9773708]},"type":"Feature","properties":{"addr:city":"Doddanekundi, Marathahalli","addr:housename":"Sri Kote Ashirwad Towers","addr:housenumber":"27/7","addr:postcode":560037,"addr:street":"Outer Ring Road","amenity":"restaurant","email":"info@lumiere.co.in","name":"Lumiere Restaurant","phone":"+91-80-65341133;+91-80-65372244","website":"http://lumiere.co.in"}},{"geometry":{"type":"Point","coordinates":[77.6954241,12.9775851]},"type":"Feature","properties":{"addr:city":"Doddanekundi, Marathahalli","addr:housenumber":25,"addr:postcode":560037,"addr:street":"Outer Ring Road","amenity":"restaurant","cuisine":"asian","internet_access":"no","name":"Jalsa","phone":"+91-80-32425757;+91-80-32436767;+91-9886657788;+91-9886687788","website":"http://jalsa.co.in/"}},{"geometry":{"type":"Point","coordinates":[77.6937246,12.9805079]},"type":"Feature","properties":{"addr:city":"Doddanekundi, Marathahalli","addr:housenumber":"38/3","addr:postcode":560037,"addr:street":"Outer Ring Road","amenity":"restaurant","cuisine":"indian","email":"mayurigarden@live.com","name":"Mayuri Garden","phone":"+91-9742707333;+91-8147031030"}},{"geometry":{"type":"Point","coordinates":[77.7116566,12.9890678]},"type":"Feature","properties":{"addr:street":"Hoodi Main Road","amenity":"restaurant","cuisine":"indian","name":"Ankur Family Restaurant"}},{"geometry":{"type":"Point","coordinates":[77.5875117,12.9845859]},"type":"Feature","properties":{"amenity":"restaurant","name":"Hotel Samrat"}},{"geometry":{"type":"Point","coordinates":[77.7091042,12.9570571]},"type":"Feature","properties":{"addr:city":"Marathhalli","addr:postcode":560037,"addr:street":"HAL Airport Road (near Marathahalli Bridge)","amenity":"restaurant","name":"Spice Garden","phone":"+91-80-28476688;+91-80-65636522;+91-80-41705020"}},{"geometry":{"type":"Point","coordinates":[77.7018369,12.9656103]},"type":"Feature","properties":{"addr:city":"Doddanekundi, Bangalore","addr:housename":"MR Kote Plaza","addr:housenumber":"95/3","addr:street":"Outer Ring Road","amenity":"restaurant","name":"Infusion Restaurant"}},{"geometry":{"type":"Point","coordinates":[77.7018148,12.9654258]},"type":"Feature","properties":{"addr:city":"Marathahalli, Bangalore","addr:street":"Outer Ring Road","amenity":"restaurant","name":"Chilly Pepper Restaurant"}},{"geometry":{"type":"Point","coordinates":[77.6095986,12.9747502]},"type":"Feature","properties":{"amenity":"restaurant","cuisine":"indian","internet_access":"no","name":"Ullas Refreshment"}},{"geometry":{"type":"Point","coordinates":[77.5993592,13.0015628]},"type":"Feature","properties":{"addr:street":"Nandi Durg Road","amenity":"restaurant","name":"Elements"}},{"geometry":{"type":"Point","coordinates":[77.6068894,12.97241]},"type":"Feature","properties":{"addr:street":"Brigade Road","amenity":"restaurant","name":"American Express"}},{"geometry":{"type":"Point","coordinates":[77.6404909,12.9238947]},"type":"Feature","properties":{"addr:street":"Sarjapur Road","amenity":"restaurant","cuisine":"indian","name":"Bhagini Restaurant"}},{"geometry":{"type":"Point","coordinates":[77.6125976,12.934729]},"type":"Feature","properties":{"addr:street":"80 Feet Road","amenity":"restaurant","cuisine":"chinese","name":"Hungry Panda"}},{"geometry":{"type":"Point","coordinates":[77.7085947,12.9577184]},"type":"Feature","properties":{"addr:city":"Bangalore","addr:street":"Varthur Road","amenity":"restaurant","cuisine":"indian","name":"Adaa"}},{"geometry":{"type":"Point","coordinates":[77.6732164,12.9855001]},"type":"Feature","properties":{"addr:street":"Kaggadasspura Main Road","amenity":"restaurant","name":"Reddys"}},{"geometry":{"type":"Point","coordinates":[77.6405632,12.9809837]},"type":"Feature","properties":{"addr:street":"100 Feet Road","amenity":"restaurant","cuisine":"international","name":"Tangerine"}},{"geometry":{"type":"Point","coordinates":[77.6405982,12.9800374]},"type":"Feature","properties":{"addr:street":"100 Feet Road","amenity":"restaurant","cuisine":"indian","name":"Kund"}},{"geometry":{"type":"Point","coordinates":[77.7511427,12.979235]},"type":"Feature","properties":{"addr:city":"Bangalore","addr:housenumber":"3/3","addr:postcode":560066,"addr:street":"Whitefield Main Road","amenity":"restaurant","cuisine":"chinese","is_in":"Whitefield","name":"Chung WAH","phone":"+91-80-41641300"}},{"geometry":{"type":"Point","coordinates":[77.602921,12.9753094]},"type":"Feature","properties":{"addr:street":"Church Street","amenity":"restaurant","name":"Highgates Hotel","website":"highgateshotel.com"}},{"geometry":{"type":"Point","coordinates":[77.7146922,12.967383]},"type":"Feature","properties":{"addr:city":"Bangalore","addr:housenumber":125,"addr:postcode":560066,"addr:street":"Brookfield Main Road","amenity":"restaurant","cuisine":"indian;asian","name":"Hotel Zaica","phone":"+91-80-41162485"}},{"geometry":{"type":"Point","coordinates":[77.6267552,12.9377655]},"type":"Feature","properties":{"addr:street":"80 Feet Road","amenity":"restaurant","name":"Gangothri Restaurant"}},{"geometry":{"type":"Point","coordinates":[77.6486258,12.9594188]},"type":"Feature","properties":{"amenity":"restaurant","name":"Matthan"}},{"geometry":{"type":"Point","coordinates":[77.7271406,12.9800101]},"type":"Feature","properties":{"addr:city":"Bangalore","addr:postcode":560066,"addr:street":"Epip Industrial Area, Whitefield","amenity":"restaurant","cuisine":"chinese","name":"Beijing Bites","phone":"+91-80-40930388;+91-80-40930488","website":"http://www.beijingbites.com/"}},{"geometry":{"type":"Point","coordinates":[77.717814,12.9723494]},"type":"Feature","properties":{"addr:city":"Bangalore","addr:housenumber":23,"addr:street":"Epip Zone","amenity":"restaurant","fax":"+91-80-43311556","name":"Clarion","phone":"+91-80-43311555","website":"http://www.clarionhotel.com/"}},{"geometry":{"type":"Point","coordinates":[77.7175512,12.9717256]},"type":"Feature","properties":{"addr:city":"Bangalore","addr:housenumber":23,"addr:postcode":560066,"addr:street":"EPIP Zone, Whitefield","amenity":"restaurant","email":"info@themarkboulevard.com","fax":"+91-80-41985556","name":"The Mark Boulevard","phone":"+91-80-41985555","website":"http://www.themarkboulevard.com/"}},{"geometry":{"type":"Point","coordinates":[77.5788885,12.9856254]},"type":"Feature","properties":{"addr:street":"Kumara Krupa Road","amenity":"restaurant","name":"Hotel Janardhan"}},{"geometry":{"type":"Point","coordinates":[77.5792692,12.9853569]},"type":"Feature","properties":{"addr:housenumber":"32/3","addr:street":"Crescent Road","amenity":"restaurant","cuisine":"indian","fax":"+91-80-41138488","name":"Kabab Studio","phone":"+91-80-41291300","website":"http://www.goldfinchhotels.com"}},{"geometry":{"type":"Point","coordinates":[77.5792466,12.9853129]},"type":"Feature","properties":{"addr:housenumber":"32/3","amenity":"restaurant","cuisine":"indian","fax":"+91-80-41138488","name":"Goldfinch Hotel","phone":"+91-80-41291300","website":"http://www.goldfinchhotels.com"}},{"geometry":{"type":"Point","coordinates":[77.5932147,12.9578638]},"type":"Feature","properties":{"amenity":"restaurant","name":"Foody's"}},{"geometry":{"type":"Point","coordinates":[77.6077507,12.9671195]},"type":"Feature","properties":{"amenity":"restaurant","cuisine":"french","name":"Olive Beach"}},{"geometry":{"type":"Point","coordinates":[77.7481385,12.9598156]},"type":"Feature","properties":{"addr:street":"Forum Value Mall","amenity":"restaurant","name":"MTR"}},{"geometry":{"type":"Point","coordinates":[77.7473381,12.9598316]},"type":"Feature","properties":{"addr:street":"Forum Value Mall","amenity":"restaurant","name":"Chettinadu Palate"}},{"geometry":{"type":"Point","coordinates":[77.7476967,12.9598375]},"type":"Feature","properties":{"addr:street":"Forum Value Mall","amenity":"restaurant","cuisine":"chinese","name":"Beijing Bites"}},{"geometry":{"type":"Point","coordinates":[77.7479363,12.9598229]},"type":"Feature","properties":{"addr:street":"Forum Value Mall","amenity":"restaurant","name":"Namma Sagar"}},{"geometry":{"type":"Point","coordinates":[77.7481291,12.9598943]},"type":"Feature","properties":{"addr:street":"Forum Value Mall","amenity":"restaurant","name":"TOSCANO"}},{"geometry":{"type":"Point","coordinates":[77.6950926,12.97952]},"type":"Feature","properties":{"addr:street":"ORR Doddanakundi","amenity":"restaurant","name":"Bhagini Restaurant"}},{"geometry":{"type":"Point","coordinates":[77.6952589,12.9793213]},"type":"Feature","properties":{"amenity":"restaurant","name":"Traffic Jam restaurant"}},{"geometry":{"type":"Point","coordinates":[77.6946259,12.9788613]},"type":"Feature","properties":{"addr:street":"ORR  opposite bhagini","amenity":"restaurant","name":"Pink restaurant"}},{"geometry":{"type":"Point","coordinates":[77.6999227,12.9531098]},"type":"Feature","properties":{"addr:city":"Marathahalli, Bangalore","addr:housenumber":"92/3","addr:street":"Outer Ring Road","amenity":"restaurant","cuisine":"indian","name":"Punjabi Tadka","phone":"+91-9241746626"}},{"geometry":{"type":"Point","coordinates":[77.6295288,12.9349478]},"type":"Feature","properties":{"amenity":"restaurant","name":"Sri Vishnu Sagar"}},{"geometry":{"type":"Point","coordinates":[77.7097026,12.9565028]},"type":"Feature","properties":{"addr:housenumber":35,"addr:postcode":560037,"addr:street":"Varthur Main Road","amenity":"restaurant","cuisine":"indian","email":"cococo@gmail.com","name":"Coconut Grove","phone":"+91-80-28540603","source":"Bing"}},{"geometry":{"type":"Point","coordinates":[77.5694503,12.9982559]},"type":"Feature","properties":{"amenity":"restaurant","name":"Sri Sagar","old_name":"Central Tiffin Room (CTR)"}},{"geometry":{"type":"Point","coordinates":[77.563252,13.0088749]},"type":"Feature","properties":{"amenity":"restaurant"}},{"geometry":{"type":"Point","coordinates":[77.5723686,13.0009296]},"type":"Feature","properties":{"amenity":"restaurant","cuisine":"vegetarian","name":"Food Camp"}},{"geometry":{"type":"Point","coordinates":[77.5721394,13.0010829]},"type":"Feature","properties":{"amenity":"restaurant","cuisine":"regional"}},{"geometry":{"type":"Point","coordinates":[77.5980258,12.9833264]},"type":"Feature","properties":{"addr:housenumber":"21/1","addr:street":"cunningham cross road","amenity":"restaurant","name":"eden park bar and restaurant"}},{"geometry":{"type":"Point","coordinates":[77.6625859,12.8482741]},"type":"Feature","properties":{"addr:city":"Electronic City, Bangalore","amenity":"restaurant","cuisine":"indian","name":"Pallavi Grand"}},{"geometry":{"type":"Point","coordinates":[77.6547778,12.9717734]},"type":"Feature","properties":{"amenity":"restaurant","cuisine":"indian","name":"Plantin Leaf Andhra Restaurant"}},{"geometry":{"type":"Point","coordinates":[77.6537362,12.9721494]},"type":"Feature","properties":{"amenity":"restaurant","name":"Chowka Rajasthani"}},{"geometry":{"type":"Point","coordinates":[77.5734008,12.9040043]},"type":"Feature","properties":{"amenity":"restaurant","cuisine":"pizza","name":"Pizza Hut"}},{"geometry":{"type":"Point","coordinates":[77.5679951,12.8940827]},"type":"Feature","properties":{"amenity":"restaurant","cuisine":"pizza","name":"Dominos"}},{"geometry":{"type":"Point","coordinates":[77.6420754,12.9792849]},"type":"Feature","properties":{"amenity":"restaurant","name":"Sue's Kitchen"}},{"geometry":{"type":"Point","coordinates":[77.6409381,12.9808322]},"type":"Feature","properties":{"amenity":"restaurant","name":"south indies"}},{"geometry":{"type":"Point","coordinates":[77.6334387,12.9801683]},"type":"Feature","properties":{"amenity":"restaurant","name":"em's kitchen"}},{"geometry":{"type":"Point","coordinates":[77.6418716,12.9621543]},"type":"Feature","properties":{"amenity":"restaurant","name":"Mainland China","wheelchair":"limited"}},{"geometry":{"type":"Point","coordinates":[77.6245906,12.9370423]},"type":"Feature","properties":{"amenity":"restaurant","name":"Coast to Coast Sea food restaurant"}},{"geometry":{"type":"Point","coordinates":[77.6234716,12.9342471]},"type":"Feature","properties":{"amenity":"restaurant","name":"tamrind restaurant"}},{"geometry":{"type":"Point","coordinates":[77.6245424,12.9370998]},"type":"Feature","properties":{"amenity":"restaurant","name":"Kubey Seafood Restaurant"}},{"geometry":{"type":"Point","coordinates":[77.629115,12.9689293]},"type":"Feature","properties":{"amenity":"restaurant","cuisine":"vegetarian","name":"annapoorni vegeterian restaurant"}},{"geometry":{"type":"Point","coordinates":[77.5640131,12.9075699]},"type":"Feature","properties":{"amenity":"restaurant"}},{"geometry":{"type":"Point","coordinates":[77.5791221,12.9109843]},"type":"Feature","properties":{"amenity":"restaurant","cuisine":"indian","name":"Prasiddhi"}},{"geometry":{"type":"Point","coordinates":[77.5855728,12.9056456]},"type":"Feature","properties":{"amenity":"restaurant","cuisine":"indian","name":"Nandhini Deluxe"}},{"geometry":{"type":"Point","coordinates":[77.5837541,12.9027732]},"type":"Feature","properties":{"amenity":"restaurant","cuisine":"indian","name":"Inchara"}},{"geometry":{"type":"Point","coordinates":[77.5995926,12.912138]},"type":"Feature","properties":{"amenity":"restaurant","cuisine":"indian","name":"purbhi"}},{"geometry":{"type":"Point","coordinates":[77.6478563,12.9689522]},"type":"Feature","properties":{"amenity":"restaurant","cuisine":"chinese","name":"Bejing Bites"}},{"geometry":{"type":"Point","coordinates":[77.6432863,12.9520885]},"type":"Feature","properties":{"addr:housename":"Embasy Golf Links","amenity":"restaurant","name":"Riviera Food Court"}},{"geometry":{"type":"Point","coordinates":[77.5767626,12.9363255]},"type":"Feature","properties":{"amenity":"restaurant","cuisine":"indian","name":"U D Residency"}},{"geometry":{"type":"Point","coordinates":[77.7152878,12.9569204]},"type":"Feature","properties":{"amenity":"restaurant","name":"Bhagini"}},{"geometry":{"type":"Point","coordinates":[77.7166376,12.9561843]},"type":"Feature","properties":{"amenity":"restaurant","cuisine":"Biryani","name":"Biryani Zone"}},{"geometry":{"type":"Point","coordinates":[77.7161227,12.9645659]},"type":"Feature","properties":{"amenity":"restaurant","cuisine":"chinese","name":"Jade"}},{"geometry":{"type":"Point","coordinates":[77.7161565,12.9645725]},"type":"Feature","properties":{"amenity":"restaurant","cuisine":"vegetarian","name":"Northeren Wave","vegeterian":"yes"}},{"geometry":{"type":"Point","coordinates":[77.7161812,12.9645747]},"type":"Feature","properties":{"amenity":"restaurant","cuisine":"fish","name":"Kayal"}},{"geometry":{"type":"Point","coordinates":[77.4011824,12.8345654]},"type":"Feature","properties":{"addr:street":"Wonder La, Mysore Road","amenity":"restaurant","cuisine":"indian","name":"Chillies"}},{"geometry":{"type":"Point","coordinates":[77.7503997,12.9710201]},"type":"Feature","properties":{"amenity":"restaurant","cuisine":"indian","name":"Dominus"}},{"geometry":{"type":"Point","coordinates":[77.6165322,12.9343378]},"type":"Feature","properties":{"amenity":"restaurant","name":"Paramount"}},{"geometry":{"type":"Point","coordinates":[77.6142714,12.9365445]},"type":"Feature","properties":{"amenity":"restaurant","name":"Lucky da dhaba"}},{"geometry":{"type":"Point","coordinates":[77.6193658,12.9338202]},"type":"Feature","properties":{"amenity":"restaurant","cuisine":"Mughlai","name":"Lazeej"}},{"geometry":{"type":"Point","coordinates":[77.616388,12.9344488]},"type":"Feature","properties":{"amenity":"restaurant","name":"Meghna Biryani"}},{"geometry":{"type":"Point","coordinates":[77.6152238,12.9336119]},"type":"Feature","properties":{"amenity":"restaurant","cuisine":"chinese","name":"Zheng"}},{"geometry":{"type":"Point","coordinates":[77.6194655,12.9338304]},"type":"Feature","properties":{"amenity":"restaurant","cuisine":"north indian","name":"Golmal Paratha"}},{"geometry":{"type":"Point","coordinates":[77.614409,12.9365369]},"type":"Feature","properties":{"amenity":"restaurant","name":"Aalishan"}},{"geometry":{"type":"Point","coordinates":[77.622557,12.9336331]},"type":"Feature","properties":{"amenity":"restaurant","cuisine":"chinese","name":"Ping"}},{"geometry":{"type":"Point","coordinates":[77.6215853,12.9336731]},"type":"Feature","properties":{"amenity":"restaurant","cuisine":"chinese","name":"Mainland China"}},{"geometry":{"type":"Point","coordinates":[77.6146718,12.9359336]},"type":"Feature","properties":{"amenity":"restaurant","name":"Daawat"}},{"geometry":{"type":"Point","coordinates":[77.6210731,12.9334825]},"type":"Feature","properties":{"amenity":"restaurant","cuisine":"indian","name":"Kobe"}},{"geometry":{"type":"Point","coordinates":[77.6145138,12.9362549]},"type":"Feature","properties":{"amenity":"restaurant","name":"Atithya"}},{"geometry":{"type":"Point","coordinates":[77.6193019,12.9338227]},"type":"Feature","properties":{"amenity":"restaurant","cuisine":"tandoor","name":"Tunday Kabab"}},{"geometry":{"type":"Point","coordinates":[77.6149483,12.9358653]},"type":"Feature","properties":{"amenity":"restaurant","name":"Udupi Upahaar"}},{"geometry":{"type":"Point","coordinates":[77.6150496,12.9363104]},"type":"Feature","properties":{"amenity":"restaurant","name":"Coorg"}},{"geometry":{"type":"Point","coordinates":[77.6189966,12.9337973]},"type":"Feature","properties":{"amenity":"restaurant","name":"KC Das"}},{"geometry":{"type":"Point","coordinates":[77.6147343,12.9358031]},"type":"Feature","properties":{"amenity":"restaurant","name":"A2B"}},{"geometry":{"type":"Point","coordinates":[77.6150183,12.9363494]},"type":"Feature","properties":{"amenity":"restaurant","cuisine":"Naga","name":"Zingron"}},{"geometry":{"type":"Point","coordinates":[77.6217925,12.9334311]},"type":"Feature","properties":{"amenity":"restaurant","cuisine":"chinese","name":"Beijing Bites"}},{"geometry":{"type":"Point","coordinates":[77.6164042,12.9341001]},"type":"Feature","properties":{"amenity":"restaurant","name":"Lazeej Express"}},{"geometry":{"type":"Point","coordinates":[77.6146123,12.9365034]},"type":"Feature","properties":{"amenity":"restaurant","name":"Ammi's Biryani"}},{"geometry":{"type":"Point","coordinates":[77.6194174,12.9338857]},"type":"Feature","properties":{"amenity":"restaurant","name":"Tandoor Hut"}},{"geometry":{"type":"Point","coordinates":[77.643673,12.9642735]},"type":"Feature","properties":{"amenity":"restaurant","name":"Sethji's"}},{"geometry":{"type":"Point","coordinates":[77.6361441,12.9690292]},"type":"Feature","properties":{"amenity":"restaurant"}},{"geometry":{"type":"Point","coordinates":[77.64103,12.9699607]},"type":"Feature","properties":{"amenity":"restaurant","name":"Sunny's"}},{"geometry":{"type":"Point","coordinates":[77.6377397,12.9620239]},"type":"Feature","properties":{"amenity":"restaurant","name":"Chatkara"}},{"geometry":{"type":"Point","coordinates":[77.6375199,12.9620279]},"type":"Feature","properties":{"amenity":"restaurant","name":"Chatkara Express"}},{"geometry":{"type":"Point","coordinates":[77.7495226,12.9664382]},"type":"Feature","properties":{"addr:postcode":560066,"addr:street":"Whitefield Main Road","amenity":"restaurant","cuisine":"international","name":"AuroGrace","website":"http://www.aurograceblr.com/#"}},{"geometry":{"type":"Point","coordinates":[77.7512723,12.9791618]},"type":"Feature","properties":{"addr:city":"Bangalore","addr:postcode":560066,"addr:street":"Whitefield Main Road","amenity":"restaurant","cuisine":"italian","is_in":"Whitefield","name":"Benito's","phone":"+91-80-41641300"}},{"geometry":{"type":"Point","coordinates":[77.7465277,12.9588063]},"type":"Feature","properties":{"addr:street":"Whitefield Main Road","amenity":"restaurant","cuisine":"chinese","name":"Beijing Bites"}},{"geometry":{"type":"Point","coordinates":[77.7385924,12.957152]},"type":"Feature","properties":{"addr:street":"Varthur Road","amenity":"restaurant","cuisine":"pizza","name":"Domino's Pizza"}},{"geometry":{"type":"Point","coordinates":[77.7407836,12.9575316]},"type":"Feature","properties":{"addr:street":"Varthur Road","amenity":"restaurant","cuisine":"international","name":"The Fat Chef","website":"http://www.thefatchef.co.in/"}},{"geometry":{"type":"Point","coordinates":[77.7482429,12.9632258]},"type":"Feature","properties":{"amenity":"restaurant","name":"Bhagini Park"}},{"geometry":{"type":"Point","coordinates":[77.7503941,12.9679252]},"type":"Feature","properties":{"addr:postcode":560066,"addr:street":"Whitefield Main Road","amenity":"restaurant","cuisine":"international","name":"Herbs and Spices"}},{"geometry":{"type":"Point","coordinates":[77.7427026,12.9564558]},"type":"Feature","properties":{"addr:street":"Varthur Road","amenity":"restaurant","cuisine":"indian","name":"Saffron Patch"}},{"geometry":{"type":"Point","coordinates":[77.7498415,12.9701057]},"type":"Feature","properties":{"amenity":"restaurant","cuisine":"indian","name":"The Village"}},{"geometry":{"type":"Point","coordinates":[77.7496642,12.969285]},"type":"Feature","properties":{"addr:street":"Whitefield Main Road","amenity":"restaurant","cuisine":"vegetarian","name":"New Udupi Garden"}},{"geometry":{"type":"Point","coordinates":[77.6229819,12.9999841]},"type":"Feature","properties":{"amenity":"restaurant","cuisine":"chinese","name":"delicacy chinese restaurant"}},{"geometry":{"type":"Point","coordinates":[77.6821857,12.9119863]},"type":"Feature","properties":{"addr:street":"Sarjapura road","amenity":"restaurant","name":"Chung Wah"}},{"geometry":{"type":"Point","coordinates":[77.528726,12.960932]},"type":"Feature","properties":{"amenity":"restaurant","name":"Adiga's Anantheshwara"}},{"geometry":{"type":"Point","coordinates":[77.5678342,12.9993499]},"type":"Feature","properties":{"amenity":"restaurant","cuisine":"indian","name":"Sai Shakti"}},{"geometry":{"type":"Point","coordinates":[77.5725503,12.9766211]},"type":"Feature","properties":{"amenity":"restaurant","cuisine":"regional","name":"Swathi Deluxe"}},{"geometry":{"type":"Point","coordinates":[77.6211419,12.9364341]},"type":"Feature","properties":{"amenity":"restaurant","cuisine":"chinese","name":"China Pearl"}},{"geometry":{"type":"Point","coordinates":[77.610909,12.934525]},"type":"Feature","properties":{"addr:housenumber":"1st floor","amenity":"restaurant","name":"Pizza Hut"}},{"geometry":{"type":"Point","coordinates":[77.611359,12.935016]},"type":"Feature","properties":{"addr:housenumber":"2nd floor","amenity":"restaurant","name":"Sahib Singh Sultan"}},{"geometry":{"type":"Point","coordinates":[77.6163825,12.9364098]},"type":"Feature","properties":{"amenity":"restaurant","name":"New Shanthi Sagar"}},{"geometry":{"type":"Point","coordinates":[77.613547,12.934504]},"type":"Feature","properties":{"addr:housename":"Raheja Arcade","addr:street":"80ft Road","amenity":"restaurant","cuisine":"vegetarian","name":"Gramin"}},{"geometry":{"type":"Point","coordinates":[77.613299,12.934323]},"type":"Feature","properties":{"amenity":"restaurant","name":"Om"}},{"geometry":{"type":"Point","coordinates":[77.5826613,12.9307336]},"type":"Feature","properties":{"amenity":"restaurant","cuisine":"indian","name":"Nandini Hotel"}},{"geometry":{"type":"Point","coordinates":[77.5502249,12.9256218]},"type":"Feature","properties":{"amenity":"restaurant","name":"KFC"}},{"geometry":{"type":"Point","coordinates":[77.5498709,12.9256318]},"type":"Feature","properties":{"amenity":"restaurant","name":"Dal Tadka"}},{"geometry":{"type":"Point","coordinates":[77.5787567,13.0055106]},"type":"Feature","properties":{"amenity":"restaurant","name":"Swaadista Restourant"}},{"geometry":{"type":"Point","coordinates":[77.5784554,13.0046183]},"type":"Feature","properties":{"amenity":"restaurant","name":"Rajesh Hotel"}},{"geometry":{"type":"Point","coordinates":[77.6760766,12.9264331]},"type":"Feature","properties":{"addr:postcode":560103,"addr:street":"Bellandur, Bangalore","amenity":"restaurant","name":"Domino's Pizza","website":"www.dominos.co.in/"}},{"geometry":{"type":"Point","coordinates":[77.6759261,12.9253667]},"type":"Feature","properties":{"addr:postcode":560103,"addr:street":"Bellandur, Bangalore","amenity":"restaurant","cuisine":"indian","name":"Bhagini Restaurant"}},{"geometry":{"type":"Point","coordinates":[77.6760012,12.9260621]},"type":"Feature","properties":{"addr:postcode":560103,"addr:street":"Bellandur, Bangalore","amenity":"restaurant","cuisine":"indian","name":"Ring View Restaurant"}},{"geometry":{"type":"Point","coordinates":[77.4981279,12.9267253]},"type":"Feature","properties":{"amenity":"restaurant","cuisine":"chicken","name":"Hotel Dream Land"}},{"geometry":{"type":"Point","coordinates":[77.5169615,12.9368003]},"type":"Feature","properties":{"amenity":"restaurant","name":"The Club"}},{"geometry":{"type":"Point","coordinates":[77.5164894,12.9259148]},"type":"Feature","properties":{"amenity":"restaurant","name":1947}},{"geometry":{"type":"Point","coordinates":[77.5206736,12.9214078]},"type":"Feature","properties":{"amenity":"restaurant","cuisine":"chinese","name":"Bejing Bites"}},{"geometry":{"type":"Point","coordinates":[77.5508753,12.9099779]},"type":"Feature","properties":{"amenity":"restaurant","name":"Masala"}},{"geometry":{"type":"Point","coordinates":[77.5591265,13.0797112]},"type":"Feature","properties":{"amenity":"restaurant","cuisine":"regional","name":"Adyar Ananda Bhavan"}},{"geometry":{"type":"Point","coordinates":[77.5587667,13.0775498]},"type":"Feature","properties":{"amenity":"restaurant","name":"Sri Krishna Upahar"}},{"geometry":{"type":"Point","coordinates":[77.6300787,12.934295]},"type":"Feature","properties":{"amenity":"restaurant","name":"Maharaja Restaurant"}},{"geometry":{"type":"Point","coordinates":[77.6331422,12.9306956]},"type":"Feature","properties":{"amenity":"restaurant"}},{"geometry":{"type":"Point","coordinates":[77.5163638,13.041276]},"type":"Feature","properties":{"amenity":"restaurant","name":"Agarwal Sweets and Restaurant"}},{"geometry":{"type":"Point","coordinates":[77.5699597,13.0321642]},"type":"Feature","properties":{"amenity":"restaurant","name":"Food Bay"}},{"geometry":{"type":"Point","coordinates":[77.5702655,13.031422]},"type":"Feature","properties":{"amenity":"restaurant","cuisine":"indian","name":"Nandhini Deluxe"}},{"geometry":{"type":"Point","coordinates":[77.5711931,13.0289643]},"type":"Feature","properties":{"amenity":"restaurant","name":"Casino"}},{"geometry":{"type":"Point","coordinates":[77.5710887,13.0291044]},"type":"Feature","properties":{"amenity":"restaurant","name":"Sagar Samrat"}},{"geometry":{"type":"Point","coordinates":[77.571671,13.0277088]},"type":"Feature","properties":{"amenity":"restaurant","cuisine":"chinese","name":"Chung's Kitchen"}},{"geometry":{"type":"Point","coordinates":[77.5746268,13.0362903]},"type":"Feature","properties":{"amenity":"restaurant","name":"Adigas"}},{"geometry":{"type":"Point","coordinates":[77.6228508,12.9331413]},"type":"Feature","properties":{"amenity":"restaurant","cuisine":"spanish","name":"Fiorano Ristorante"}},{"geometry":{"type":"Point","coordinates":[77.6245727,12.935604]},"type":"Feature","properties":{"addr:street":"Koramangala, Bangalore","amenity":"restaurant","cuisine":"indian","name":"KAMAT Restaurant"}},{"geometry":{"type":"Point","coordinates":[77.553445,12.9414203]},"type":"Feature","properties":{"addr:postcode":560050,"amenity":"restaurant","name":"Dragons"}},{"geometry":{"type":"Point","coordinates":[77.5717646,12.9447818]},"type":"Feature","properties":{"addr:street":"Gandhi Bazar Main Road","amenity":"restaurant","cuisine":"vegetarian","name":"Roti Ghar"}},{"geometry":{"type":"Point","coordinates":[77.5714106,12.9450484]},"type":"Feature","properties":{"addr:street":"Gandhi Bazar Main Road","amenity":"restaurant","cuisine":"indian","name":"Vidhyarthi Bhavan"}},{"geometry":{"type":"Point","coordinates":[77.5914719,12.9167878]},"type":"Feature","properties":{"amenity":"restaurant","name":"Woody's"}},{"geometry":{"type":"Point","coordinates":[77.5948673,12.9153417]},"type":"Feature","properties":{"amenity":"restaurant","name":"SLV"}},{"geometry":{"type":"Point","coordinates":[77.697866,12.955452]},"type":"Feature","properties":{"amenity":"restaurant","name":"Megha Restaurant"}},{"geometry":{"type":"Point","coordinates":[77.624391,12.9354326]},"type":"Feature","properties":{"amenity":"restaurant","cuisine":"indian","designation":"Authentic Orissa cuisine","name":"Dalma restaurant"}},{"geometry":{"type":"Point","coordinates":[77.621296,12.9362724]},"type":"Feature","properties":{"addr:housename":"Hotel Nandhana Palace","amenity":"restaurant","cuisine":"indian","designation":"Business class hotel","name":"Nandhana Grand"}},{"geometry":{"type":"Point","coordinates":[77.7486526,12.9639806]},"type":"Feature","properties":{"amenity":"restaurant","cuisine":"regional","name":"Kolkata's"}},{"geometry":{"type":"Point","coordinates":[77.6178071,12.9422358]},"type":"Feature","properties":{"amenity":"restaurant","cuisine":"chinese","name":"Dim Sum"}},{"geometry":{"type":"Point","coordinates":[77.6059583,12.9158906]},"type":"Feature","properties":{"addr:housename":"Green Oak Hotel","addr:housenumber":278,"addr:postcode":560076,"addr:street":"7th Main, Mico Layout, BTM Layout","amenity":"restaurant","cuisine":"indian","name":"Oak Leaf"}},{"geometry":{"type":"Point","coordinates":[77.5727582,12.9440288]},"type":"Feature","properties":{"amenity":"restaurant","name":"Shiv sagar"}},{"geometry":{"type":"Point","coordinates":[77.5729353,12.9444313]},"type":"Feature","properties":{"amenity":"restaurant","cuisine":"vegetarian","name":"Adyar Anand Bhavan"}},{"geometry":{"type":"Point","coordinates":[77.6137161,12.9345184]},"type":"Feature","properties":{"addr:housename":"Zaika restaurant, Raheja Arcade","addr:housenumber":34,"addr:postcode":560095,"amenity":"restaurant","cuisine":"vegetarian","designation":"Vegtarian Restaurant","name":"Zaika"}},{"geometry":{"type":"Point","coordinates":[77.6132974,12.93433]},"type":"Feature","properties":{"addr:housename":"Bay leaf restaurant, Raheja Arcade","addr:postcode":560095,"addr:street":"20th main, Industrial lay out","amenity":"restaurant","cuisine":"indian","name":"Bay leaf"}},{"geometry":{"type":"Point","coordinates":[77.6095006,12.9168778]},"type":"Feature","properties":{"alt_name":"A2B","amenity":"restaurant","cuisine":"vegetarian","name":"Adyar Ananda Bhavan"}},{"geometry":{"type":"Point","coordinates":[77.5377868,12.988545]},"type":"Feature","properties":{"amenity":"restaurant","name":"New Shanti Sagar"}},{"geometry":{"type":"Point","coordinates":[77.5375025,12.9874787]},"type":"Feature","properties":{"amenity":"restaurant","cuisine":"vegetarian","name":"Shri Krishna Sagar"}},{"geometry":{"type":"Point","coordinates":[77.550715,13.0042469]},"type":"Feature","properties":{"amenity":"restaurant","name":"Shanti Sagar"}},{"geometry":{"type":"Point","coordinates":[77.6071874,12.943764]},"type":"Feature","properties":{"amenity":"restaurant","name":"Adigas"}},{"geometry":{"type":"Point","coordinates":[77.6107987,12.93461]},"type":"Feature","properties":{"addr:postcode":560095,"addr:street":"Forum Mall, Hosur Road, Koramangala, Bangalore","amenity":"restaurant","cuisine":"indian","name":"Kentucky Fried Chicken","wheelchair":"yes"}},{"geometry":{"type":"Point","coordinates":[77.6165335,12.9341586]},"type":"Feature","properties":{"addr:housename":"Adaa","addr:postcode":560095,"addr:street":"5th Block Koramangala","amenity":"restaurant","cuisine":"indian","designation":"Punjabi","name":"Adaa Restaurant"}},{"geometry":{"type":"Point","coordinates":[77.6205029,12.9367783]},"type":"Feature","properties":{"addr:housename":"Willi vanili","addr:postcode":560095,"addr:street":"5th block Koramangala","amenity":"restaurant","cuisine":"ice_cream","designation":"Ice cream parlor","name":"Willy Vanilli"}},{"geometry":{"type":"Point","coordinates":[77.6205137,12.9366057]},"type":"Feature","properties":{"addr:housename":"Chung Wah","addr:housenumber":20,"amenity":"restaurant","cuisine":"chinese","designation":"Chinese restaurant","name":"Chung wah","website":"http://chungwahrestaurants.co.in/"}},{"geometry":{"type":"Point","coordinates":[77.5876488,13.0989001]},"type":"Feature","properties":{"amenity":"restaurant","cuisine":"ice_cream","name":"CornerHouse"}},{"geometry":{"type":"Point","coordinates":[77.6150879,12.936261]},"type":"Feature","properties":{"amenity":"restaurant","cuisine":"indian","name":"Sathyas Briyani"}},{"geometry":{"type":"Point","coordinates":[77.6148636,12.9360411]},"type":"Feature","properties":{"amenity":"restaurant","cuisine":"vegetarian","name":"Red fort restaurant"}},{"geometry":{"type":"Point","coordinates":[77.6150661,12.936049]},"type":"Feature","properties":{"amenity":"restaurant","cuisine":"ice_cream","name":"Corner House Icecreams"}},{"geometry":{"type":"Point","coordinates":[77.6243143,12.9373691]},"type":"Feature","properties":{"amenity":"restaurant","cuisine":"indian","name":"Bhojohori manna"}},{"geometry":{"type":"Point","coordinates":[77.6198954,12.9368986]},"type":"Feature","properties":{"amenity":"restaurant","cuisine":"vegetarian","name":"Krishna Cafe"}},{"geometry":{"type":"Point","coordinates":[77.6250803,12.9364077]},"type":"Feature","properties":{"amenity":"restaurant","cuisine":"indian","name":"Imperial Hotel"}},{"geometry":{"type":"Point","coordinates":[77.624368,12.9373234]},"type":"Feature","properties":{"addr:housename":"1st floor","addr:postcode":560095,"amenity":"restaurant","cuisine":"indian","name":"heritage of Bengal"}},{"geometry":{"type":"Point","coordinates":[77.6229647,12.9401578]},"type":"Feature","properties":{"amenity":"restaurant","cuisine":"international","name":"The Rogue Elephant"}},{"geometry":{"type":"Point","coordinates":[77.6197694,12.9369809]},"type":"Feature","properties":{"amenity":"restaurant","cuisine":"vegetarian","name":"Anand Sweets and Restaurant"}},{"geometry":{"type":"Point","coordinates":[77.6248696,12.9368711]},"type":"Feature","properties":{"amenity":"restaurant","cuisine":"international","name":"Ocean restaurant"}},{"geometry":{"type":"Point","coordinates":[77.6034541,12.9168527]},"type":"Feature","properties":{"amenity":"restaurant","name":"Hyderabadi Briyani"}},{"geometry":{"type":"Point","coordinates":[77.6128809,12.9348451]},"type":"Feature","properties":{"amenity":"restaurant","name":"N.E Diner"}},{"geometry":{"type":"Point","coordinates":[77.6130633,12.9350385]},"type":"Feature","properties":{"addr:postcode":560095,"addr:street":"Koramangala Industrial Layout","amenity":"restaurant","cuisine":"ice_cream","name":"Thanco Fresh Fruitz Ice-Creams"}},{"geometry":{"type":"Point","coordinates":[77.6130901,12.935577]},"type":"Feature","properties":{"addr:postcode":560095,"amenity":"restaurant","cuisine":"seafood","name":"Mangoa Coastal cuisine"}},{"geometry":{"type":"Point","coordinates":[77.6125108,12.9367534]},"type":"Feature","properties":{"amenity":"restaurant","cuisine":"indian","name":"Allahabad mess"}},{"geometry":{"type":"Point","coordinates":[77.619779,12.9371352]},"type":"Feature","properties":{"amenity":"restaurant","name":"Flambe"}},{"geometry":{"type":"Point","coordinates":[77.6165979,12.9365549]},"type":"Feature","properties":{"amenity":"restaurant","name":"Aangan restaurant"}},{"geometry":{"type":"Point","coordinates":[77.6420142,12.8737015]},"type":"Feature","properties":{"amenity":"restaurant","name":"Manipal County"}},{"geometry":{"type":"Point","coordinates":[77.6247225,12.936869]},"type":"Feature","properties":{"addr:postcode":560095,"addr:street":"Koramangala","amenity":"restaurant","cuisine":"indian","name":"Naati oota"}},{"geometry":{"type":"Point","coordinates":[77.6198784,12.9368481]},"type":"Feature","properties":{"amenity":"restaurant","cuisine":"international","name":"Sizzlers and more"}},{"geometry":{"type":"Point","coordinates":[77.6202003,12.936937]},"type":"Feature","properties":{"amenity":"restaurant","cuisine":"chinese","name":"China Bowl restaurant"}},{"geometry":{"type":"Point","coordinates":[77.6197711,12.9368899]},"type":"Feature","properties":{"amenity":"restaurant","cuisine":"indian","name":"Malabar cafe"}},{"geometry":{"type":"Point","coordinates":[77.6201144,12.9369893]},"type":"Feature","properties":{"amenity":"restaurant","cuisine":"indian","designation":"1st floor","name":"Desi Tadka"}},{"geometry":{"type":"Point","coordinates":[77.6246206,12.9368847]},"type":"Feature","properties":{"amenity":"restaurant","cuisine":"chinese","name":"Chinese Cottage"}},{"geometry":{"type":"Point","coordinates":[77.6266966,12.9377944]},"type":"Feature","properties":{"amenity":"restaurant","cuisine":"indian","name":"Chalo Punjab"}},{"geometry":{"type":"Point","coordinates":[77.6258597,12.9362469]},"type":"Feature","properties":{"amenity":"restaurant","cuisine":"international","name":"Ambrosia restaurant"}},{"geometry":{"type":"Point","coordinates":[77.6261445,12.9380577]},"type":"Feature","properties":{"amenity":"restaurant","cuisine":"ice_cream","name":"Kwality Walls"}},{"geometry":{"type":"Point","coordinates":[77.6263855,12.9378206]},"type":"Feature","properties":{"amenity":"restaurant","cuisine":"ice_cream","name":"Baskin Robbins"}},{"geometry":{"type":"Point","coordinates":[77.7088068,13.0200035]},"type":"Feature","properties":{"amenity":"restaurant","cuisine":"indian","name":"Bhagini Residency"}},{"geometry":{"type":"Point","coordinates":[77.6379293,12.912057]},"type":"Feature","properties":{"amenity":"restaurant","name":"Jaroka"}},{"geometry":{"type":"Point","coordinates":[77.6382858,12.9143715]},"type":"Feature","properties":{"addr:street":"14th main","amenity":"restaurant","name":"Kumarakam"}},{"geometry":{"type":"Point","coordinates":[77.6130336,12.9959044]},"type":"Feature","properties":{"amenity":"restaurant","name":"Nandini Restaurant"}},{"geometry":{"type":"Point","coordinates":[77.6131543,12.9958364]},"type":"Feature","properties":{"amenity":"restaurant","name":"Shanthi Sagar"}},{"geometry":{"type":"Point","coordinates":[77.6110429,12.9971381]},"type":"Feature","properties":{"amenity":"restaurant","name":"Domino's Pizza"}},{"geometry":{"type":"Point","coordinates":[77.6112526,12.9961448]},"type":"Feature","properties":{"amenity":"restaurant","name":"Ponnuswamy Restaurant"}},{"geometry":{"type":"Point","coordinates":[77.6089191,12.9931105]},"type":"Feature","properties":{"amenity":"restaurant","name":"Al-Siddique Kabab Center"}},{"geometry":{"type":"Point","coordinates":[77.608356,12.9934162]},"type":"Feature","properties":{"amenity":"restaurant","name":"Siddique Kabab Center"}},{"geometry":{"type":"Point","coordinates":[77.6170891,12.9960742]},"type":"Feature","properties":{"amenity":"restaurant","name":"Komala Refreshment"}},{"geometry":{"type":"Point","coordinates":[77.6076048,12.9352294]},"type":"Feature","properties":{"amenity":"restaurant","designation":"Kerala Style","name":"Kairali Restaurant"}},{"geometry":{"type":"Point","coordinates":[77.6090481,12.9343755]},"type":"Feature","properties":{"amenity":"restaurant","cuisine":"italian","name":"Little Italy"}},{"geometry":{"type":"Point","coordinates":[77.6077389,12.9358715]},"type":"Feature","properties":{"amenity":"restaurant","name":"Shiva Sagar"}},{"geometry":{"type":"Point","coordinates":[77.6152234,12.9335261]},"type":"Feature","properties":{"amenity":"restaurant","name":"Sultan of Spice"}},{"geometry":{"type":"Point","coordinates":[77.6298345,12.9062634]},"type":"Feature","properties":{"addr:housenumber":"Hosur road","amenity":"restaurant","name":"Tharavad"}},{"geometry":{"type":"Point","coordinates":[77.6170606,12.9258752]},"type":"Feature","properties":{"amenity":"restaurant","cuisine":"indian","name":"MAS"}},{"geometry":{"type":"Point","coordinates":[77.6155026,12.933536]},"type":"Feature","properties":{"amenity":"restaurant","cuisine":"indian","name":"Ammi's Briyani"}},{"geometry":{"type":"Point","coordinates":[77.6157628,12.9352797]},"type":"Feature","properties":{"amenity":"restaurant","cuisine":"chinese","name":"Chung Wah Restaurant"}},{"geometry":{"type":"Point","coordinates":[77.619424,12.9338001]},"type":"Feature","properties":{"amenity":"restaurant","cuisine":"ice_cream","designation":"Italian Ice-cream","name":"Mama mia"}},{"geometry":{"type":"Point","coordinates":[77.621508,12.9416947]},"type":"Feature","properties":{"amenity":"restaurant","cuisine":"international","name":"Boca Grande"}},{"geometry":{"type":"Point","coordinates":[77.6228342,12.9422013]},"type":"Feature","properties":{"amenity":"restaurant","cuisine":"international","name":"Papa Johns Restaurant"}},{"geometry":{"type":"Point","coordinates":[77.6142078,12.9227705]},"type":"Feature","properties":{"amenity":"restaurant","cuisine":"indian","name":"Tasty Restaurant"}},{"geometry":{"type":"Point","coordinates":[77.6127816,12.9198254]},"type":"Feature","properties":{"amenity":"restaurant","name":"Cosmo Bakery"}},{"geometry":{"type":"Point","coordinates":[77.6132797,12.9366298]},"type":"Feature","properties":{"amenity":"restaurant","cuisine":"indian","name":"Sri Sai Vijay Mess"}},{"geometry":{"type":"Point","coordinates":[77.613459,12.932844]},"type":"Feature","properties":{"amenity":"restaurant","cuisine":"indian","name":"Taste of Rampur"}},{"geometry":{"type":"Point","coordinates":[77.6156457,12.9358741]},"type":"Feature","properties":{"amenity":"restaurant","cuisine":"international","name":"Kenzina Family Restaurant"}},{"geometry":{"type":"Point","coordinates":[77.621053,12.9364753]},"type":"Feature","properties":{"amenity":"restaurant","name":"Oye Amritsar"}},{"geometry":{"type":"Point","coordinates":[77.6206239,12.9367367]},"type":"Feature","properties":{"amenity":"restaurant","name":"Pizzeria Romano"}},{"geometry":{"type":"Point","coordinates":[77.638303,12.914781]},"type":"Feature","properties":{"amenity":"restaurant","name":"Masth Kalandhar"}},{"geometry":{"type":"Point","coordinates":[77.61893,12.9388779]},"type":"Feature","properties":{"amenity":"restaurant","cuisine":"coffee_shop","name":"Kiwi kiss"}},{"geometry":{"type":"Point","coordinates":[77.6292559,12.9170218]},"type":"Feature","properties":{"amenity":"restaurant","name":"Aranya Restaurant"}},{"geometry":{"type":"Point","coordinates":[77.6545081,12.9678444]},"type":"Feature","properties":{"amenity":"restaurant","name":"Malbar Hotel"}},{"geometry":{"type":"Point","coordinates":[77.5824857,13.0934342]},"type":"Feature","properties":{"amenity":"restaurant","cuisine":"vegetarian","name":"Sringar food palace"}},{"geometry":{"type":"Point","coordinates":[77.5773144,13.098633]},"type":"Feature","properties":{"amenity":"restaurant","cuisine":"indian","name":"Kanti sweets"}},{"geometry":{"type":"Point","coordinates":[77.5931284,13.0591093]},"type":"Feature","properties":{"amenity":"restaurant","cuisine":"indian","name":"Swathi garden"}},{"geometry":{"type":"Point","coordinates":[77.612715,12.9342688]},"type":"Feature","properties":{"amenity":"restaurant","cuisine":"international","name":"Spagetti Kitchen"}},{"geometry":{"type":"Point","coordinates":[77.5798112,13.027249]},"type":"Feature","properties":{"amenity":"restaurant","name":"Paratha plaza"}},{"geometry":{"type":"Point","coordinates":[77.6153051,12.9332663]},"type":"Feature","properties":{"amenity":"restaurant","name":"Ande ka funda"}},{"geometry":{"type":"Point","coordinates":[77.5496136,12.9253564]},"type":"Feature","properties":{"amenity":"restaurant","cuisine":"indian","name":"Nandhini"}},{"geometry":{"type":"Point","coordinates":[77.5507224,12.9251321]},"type":"Feature","properties":{"amenity":"restaurant","name":"Pizza  Hut"}},{"geometry":{"type":"Point","coordinates":[77.612782,12.934117]},"type":"Feature","properties":{"amenity":"restaurant","name":"Punjab Grill"}},{"geometry":{"type":"Point","coordinates":[77.5381132,12.9882063]},"type":"Feature","properties":{"amenity":"restaurant"}},{"geometry":{"type":"Point","coordinates":[77.5761365,12.9314867]},"type":"Feature","properties":{"amenity":"restaurant","name":"New Shanti Sagar"}},{"geometry":{"type":"Point","coordinates":[77.5509771,13.0040269]},"type":"Feature","properties":{"amenity":"restaurant","name":"Cane Crush"}},{"geometry":{"type":"Point","coordinates":[77.6327864,12.9315297]},"type":"Feature","properties":{"amenity":"restaurant","name":"Umerkot"}},{"geometry":{"type":"Point","coordinates":[77.6459111,12.9602775]},"type":"Feature","properties":{"amenity":"restaurant","cuisine":"indian","name":"Rahham's Families International (Richies) Restaurant","wheelchair":"no"}},{"geometry":{"type":"Point","coordinates":[77.5438625,13.0271417]},"type":"Feature","properties":{"amenity":"restaurant","name":"Hotel Prabha International"}},{"geometry":{"type":"Point","coordinates":[77.5947625,13.0581797]},"type":"Feature","properties":{"amenity":"restaurant","cuisine":"chinese","name":"Sanjay  Food Junction"}},{"geometry":{"type":"Point","coordinates":[77.5889582,13.0639227]},"type":"Feature","properties":{"amenity":"restaurant","cuisine":"vegetarian","name":"New Shanti Sagar","wheelchair":"limited"}},{"geometry":{"type":"Point","coordinates":[77.6745195,13.0201794]},"type":"Feature","properties":{"amenity":"restaurant","cuisine":"vegetarian","name":"Hotel Sinchana"}},{"geometry":{"type":"Point","coordinates":[77.637363,12.9142096]},"type":"Feature","properties":{"amenity":"restaurant","name":"Aranya Restaurant"}},{"geometry":{"type":"Point","coordinates":[77.6288365,12.9382447]},"type":"Feature","properties":{"amenity":"restaurant","cuisine":"indian","name":"Hotel Horanadu"}},{"geometry":{"type":"Point","coordinates":[77.6289221,12.9377248]},"type":"Feature","properties":{"amenity":"restaurant","cuisine":"international","name":"Pearl Inn"}},{"geometry":{"type":"Point","coordinates":[77.6299136,12.938682]},"type":"Feature","properties":{"amenity":"restaurant","cuisine":"international","name":"Cube Multi-cuisine Restaurant"}},{"geometry":{"type":"Point","coordinates":[77.6281177,12.9375545]},"type":"Feature","properties":{"amenity":"restaurant","cuisine":"international","name":"Polynation","wheelchair":"yes"}},{"geometry":{"type":"Point","coordinates":[77.6288849,12.9378413]},"type":"Feature","properties":{"amenity":"restaurant","cuisine":"international","name":"Deccan Paradise"}},{"geometry":{"type":"Point","coordinates":[77.6265513,12.9376905]},"type":"Feature","properties":{"amenity":"restaurant","cuisine":"indian","name":"Taste of Bihar"}},{"geometry":{"type":"Point","coordinates":[77.6397478,12.9519422]},"type":"Feature","properties":{"amenity":"restaurant","cuisine":"international","name":"Barbeque Nation"}},{"geometry":{"type":"Point","coordinates":[77.6401233,12.9510117]},"type":"Feature","properties":{"amenity":"restaurant","cuisine":"vegetarian","name":"Mast Kalandar"}},{"geometry":{"type":"Point","coordinates":[77.640104,12.9526958]},"type":"Feature","properties":{"amenity":"restaurant","cuisine":"international","name":"Tandoori Hipple"}},{"geometry":{"type":"Point","coordinates":[77.6400289,12.9525546]},"type":"Feature","properties":{"amenity":"restaurant","cuisine":"international","name":"LoveShack"}},{"geometry":{"type":"Point","coordinates":[77.5818694,12.9285538]},"type":"Feature","properties":{"amenity":"restaurant","cuisine":"vegetarian","name":"Mayya's"}},{"geometry":{"type":"Point","coordinates":[77.5856621,12.9288252]},"type":"Feature","properties":{"amenity":"restaurant","cuisine":"vegetarian","name":"Shanti sagar"}},{"geometry":{"type":"Point","coordinates":[77.5643439,12.9244542]},"type":"Feature","properties":{"amenity":"restaurant","name":"Pizza Hut"}},{"geometry":{"type":"Point","coordinates":[77.5645095,12.9403137]},"type":"Feature","properties":{"amenity":"restaurant","name":"Mini Punjabi Dhaba"}},{"geometry":{"type":"Point","coordinates":[77.5641393,12.9393831]},"type":"Feature","properties":{"amenity":"restaurant","name":"Ganesh FruitJuice Centre"}},{"geometry":{"type":"Point","coordinates":[77.5680581,12.9449194]},"type":"Feature","properties":{"amenity":"restaurant","name":"Cane-o-La"}},{"geometry":{"type":"Point","coordinates":[77.5679269,12.9441305]},"type":"Feature","properties":{"amenity":"restaurant","name":"Subway"}},{"geometry":{"type":"Point","coordinates":[77.5682863,12.9480672]},"type":"Feature","properties":{"amenity":"restaurant","name":"SLV Delite"}},{"geometry":{"type":"Point","coordinates":[77.5687691,12.9485377]},"type":"Feature","properties":{"amenity":"restaurant","name":"SLV Corner"}},{"geometry":{"type":"Point","coordinates":[77.5507385,12.9251478]},"type":"Feature","properties":{"amenity":"restaurant","cuisine":"chinese","name":"Chung wah"}},{"geometry":{"type":"Point","coordinates":[77.6074174,12.9729101]},"type":"Feature","properties":{"amenity":"restaurant","name":"Pizza Hut"}},{"geometry":{"type":"Point","coordinates":[77.6039839,12.9753513]},"type":"Feature","properties":{"amenity":"restaurant","name":"Coco Groove"}},{"geometry":{"type":"Point","coordinates":[77.6057381,12.9747031]},"type":"Feature","properties":{"amenity":"restaurant","name":"Ruby Tuesday"}},{"geometry":{"type":"Point","coordinates":[77.6084793,12.9729049]},"type":"Feature","properties":{"amenity":"restaurant","name":"Purple Haze"}},{"geometry":{"type":"Point","coordinates":[77.6047886,12.9756545]},"type":"Feature","properties":{"amenity":"restaurant","name":"Barista"}},{"geometry":{"type":"Point","coordinates":[77.6051072,12.974763]},"type":"Feature","properties":{"addr:housename":"Asha Enclave","addr:housenumber":"4th Floor","addr:street":"Church Street","amenity":"restaurant","name":"Oye Amritsar"}},{"geometry":{"type":"Point","coordinates":[77.6228586,12.9317341]},"type":"Feature","properties":{"amenity":"restaurant","name":"Nandini Andra Style"}},{"geometry":{"type":"Point","coordinates":[77.5412684,13.00091]},"type":"Feature","properties":{"amenity":"restaurant","name":"Hamsa Sagar"}},{"geometry":{"type":"Point","coordinates":[77.5820034,12.9285616]},"type":"Feature","properties":{"amenity":"restaurant","cuisine":"regional","name":"Kolhapuris"}},{"geometry":{"type":"Point","coordinates":[77.5779238,12.9276361]},"type":"Feature","properties":{"amenity":"restaurant","cuisine":"ice_cream","name":"Polar Bear"}},{"geometry":{"type":"Point","coordinates":[77.5781276,12.92784]},"type":"Feature","properties":{"amenity":"restaurant","cuisine":"regional","name":"Gelato Italiano"}},{"geometry":{"type":"Point","coordinates":[77.5826445,12.9285276]},"type":"Feature","properties":{"amenity":"restaurant","cuisine":"vegetarian","name":"Sukh Sagar"}},{"geometry":{"type":"Point","coordinates":[77.5836717,12.9287838]},"type":"Feature","properties":{"amenity":"restaurant","cuisine":"vegetarian"}},{"geometry":{"type":"Point","coordinates":[77.5857505,12.9287838]},"type":"Feature","properties":{"amenity":"restaurant","cuisine":"vegetarian","name":"Pavitra paradise"}},{"geometry":{"type":"Point","coordinates":[77.5861555,12.9276414]},"type":"Feature","properties":{"amenity":"restaurant","cuisine":"vegetarian","name":1947}},{"geometry":{"type":"Point","coordinates":[77.620302,12.922039]},"type":"Feature","properties":{"addr:street":"Hosur road","amenity":"restaurant","name":"Ohris"}},{"geometry":{"type":"Point","coordinates":[77.620493,12.921876]},"type":"Feature","properties":{"addr:street":"Hosur road","amenity":"restaurant","name":"Silver Metro"}},{"geometry":{"type":"Point","coordinates":[77.6136474,12.9955709]},"type":"Feature","properties":{"addr:housenumber":"66/1","addr:postcode":560005,"addr:street":"Coles Road, Fraser Town","amenity":"restaurant","cuisine":"pizza","name":"Pizza Hut, Coles Road","website":"www.pizzahut.co.in"}},{"geometry":{"type":"Point","coordinates":[77.6143877,12.9972279]},"type":"Feature","properties":{"addr:housenumber":16,"addr:postcode":560005,"addr:street":"Mosque Road","alt_name":"Kentucky Fried Chicken","amenity":"restaurant","cuisine":"burger","name":"KFC"}},{"geometry":{"type":"Point","coordinates":[77.6138674,12.9973063]},"type":"Feature","properties":{"addr:housenumber":11,"addr:postcode":560005,"addr:street":"Mosque Road","amenity":"restaurant","cuisine":"chinese","name":"Beijing Bites"}},{"geometry":{"type":"Point","coordinates":[77.6157181,12.9963445]},"type":"Feature","properties":{"addr:housename":"Aziz Gold Building","addr:housenumber":13,"addr:postcode":560005,"addr:street":"Mosque Road","amenity":"restaurant","cuisine":"burger","name":"McDonald's"}},{"geometry":{"type":"Point","coordinates":[77.6158737,12.9999459]},"type":"Feature","properties":{"addr:postcode":560005,"addr:street":"Mosque Road","alt_name":"Hotel Empire","amenity":"restaurant","cuisine":"indian","name":"Empire Restaurant"}},{"geometry":{"type":"Point","coordinates":[77.6425379,12.9782724]},"type":"Feature","properties":{"amenity":"restaurant","cuisine":"international","name":"Kobe sizzle"}},{"geometry":{"type":"Point","coordinates":[77.6429563,12.9782933]},"type":"Feature","properties":{"amenity":"restaurant","cuisine":"indian","name":"Lajawaale Swaad ka"}},{"geometry":{"type":"Point","coordinates":[77.6441526,12.978377]},"type":"Feature","properties":{"amenity":"restaurant","cuisine":"indian","name":"Cafe max"}},{"geometry":{"type":"Point","coordinates":[77.6414221,12.9628773]},"type":"Feature","properties":{"amenity":"restaurant","cuisine":"international","name":"Basil Ikon Restaurant"}},{"geometry":{"type":"Point","coordinates":[77.6415455,12.9694171]},"type":"Feature","properties":{"amenity":"restaurant","cuisine":"international","name":"Italia"}},{"geometry":{"type":"Point","coordinates":[77.6409232,12.9716231]},"type":"Feature","properties":{"amenity":"restaurant","cuisine":"indian","name":"Odyssey food"}},{"geometry":{"type":"Point","coordinates":[77.6416689,12.9648847]},"type":"Feature","properties":{"amenity":"restaurant","cuisine":"international","name":"Lube"}},{"geometry":{"type":"Point","coordinates":[77.5850948,12.9330005]},"type":"Feature","properties":{"amenity":"restaurant","cuisine":"indian","name":"Subz"}},{"geometry":{"type":"Point","coordinates":[77.5858198,12.9243848]},"type":"Feature","properties":{"amenity":"restaurant","cuisine":"chinese","name":"Beijing Bites"}},{"geometry":{"type":"Point","coordinates":[77.6104463,12.9827756]},"type":"Feature","properties":{"addr:postcode":560042,"addr:street":"Kamaraj Road","amenity":"restaurant","cuisine":"sandwich","name":"Sreelaj Lassi Bar"}},{"geometry":{"type":"Point","coordinates":[77.6104302,12.9825453]},"type":"Feature","properties":{"addr:street":"Kamaraj Road","amenity":"restaurant","cuisine":"sandwich","name":"Cool Joint"}},{"geometry":{"type":"Point","coordinates":[77.6204895,12.9365507]},"type":"Feature","properties":{"amenity":"restaurant","cuisine":"international","name":"Olio"}},{"geometry":{"type":"Point","coordinates":[77.6202564,12.9166125]},"type":"Feature","properties":{"amenity":"restaurant","cuisine":"pizza","name":"Pizza Hut"}},{"geometry":{"type":"Point","coordinates":[77.6202694,12.9215958]},"type":"Feature","properties":{"amenity":"restaurant","cuisine":"burger","name":"McDonalds"}},{"geometry":{"type":"Point","coordinates":[77.6161819,12.9346633]},"type":"Feature","properties":{"amenity":"restaurant","cuisine":"ice_cream","name":"Aboom"}},{"geometry":{"type":"Point","coordinates":[77.6104356,12.9339607]},"type":"Feature","properties":{"addr:street":"hosur road","amenity":"restaurant","name":"Shiva Sagar"}},{"geometry":{"type":"Point","coordinates":[77.6164112,12.9164249]},"type":"Feature","properties":{"amenity":"restaurant","cuisine":"indian","name":"Kataria Home Food"}},{"geometry":{"type":"Point","coordinates":[77.6152769,12.9256315]},"type":"Feature","properties":{"amenity":"restaurant","cuisine":"vegetarian","name":"Shanti Sagar"}},{"geometry":{"type":"Point","coordinates":[77.6134614,12.9229035]},"type":"Feature","properties":{"amenity":"restaurant","cuisine":"indian","name":"Aswini Hotel"}},{"geometry":{"type":"Point","coordinates":[77.6126406,12.9231702]},"type":"Feature","properties":{"amenity":"restaurant","cuisine":"indian","name":"Andra Curry Point"}},{"geometry":{"type":"Point","coordinates":[77.5956857,12.9459429]},"type":"Feature","properties":{"amenity":"restaurant","name":"Jade Empress"}},{"geometry":{"type":"Point","coordinates":[77.5951685,12.9459575]},"type":"Feature","properties":{"amenity":"restaurant","name":"Keys Hotel"}},{"geometry":{"type":"Point","coordinates":[77.5926204,12.9494002]},"type":"Feature","properties":{"amenity":"restaurant","name":"Bhagini Hotel"}},{"geometry":{"type":"Point","coordinates":[77.5860269,12.9231276]},"type":"Feature","properties":{"amenity":"restaurant","cuisine":"pizza","name":"Dominos","website":"http://www.dominos.co.in/"}},{"geometry":{"type":"Point","coordinates":[77.5931352,13.0256971]},"type":"Feature","properties":{"amenity":"restaurant","name":"Punjabi Rasoi"}},{"geometry":{"type":"Point","coordinates":[77.5927811,13.0249236]},"type":"Feature","properties":{"amenity":"restaurant","name":"Tiffin Centre(Chincken Biryani)"}},{"geometry":{"type":"Point","coordinates":[77.620121,12.921875]},"type":"Feature","properties":{"addr:street":"Hosur road","amenity":"restaurant","name":"Adigas"}},{"geometry":{"type":"Point","coordinates":[77.5928133,13.0233034]},"type":"Feature","properties":{"amenity":"restaurant","cuisine":"vegetarian","name":"New Shanti Sagar"}},{"geometry":{"type":"Point","coordinates":[77.5499565,12.9978734]},"type":"Feature","properties":{"amenity":"restaurant","name":"Swati"}},{"geometry":{"type":"Point","coordinates":[77.5507451,12.9982942]},"type":"Feature","properties":{"amenity":"restaurant","name":"Gokul Vegetarian"}},{"geometry":{"type":"Point","coordinates":[77.5494174,12.9872807]},"type":"Feature","properties":{"amenity":"restaurant","name":"Sree Nandini Palace Restaurant"}},{"geometry":{"type":"Point","coordinates":[77.5641098,12.9260154]},"type":"Feature","properties":{"amenity":"restaurant","name":"Tandoor"}},{"geometry":{"type":"Point","coordinates":[77.5419268,12.9734181]},"type":"Feature","properties":{"amenity":"restaurant","name":"Shanti Sagar"}},{"geometry":{"type":"Point","coordinates":[77.53741,12.9721687]},"type":"Feature","properties":{"amenity":"restaurant","name":"Indraprastha"}},{"geometry":{"type":"Point","coordinates":[77.5359133,12.9678455]},"type":"Feature","properties":{"amenity":"restaurant","name":"Pizza Hut"}},{"geometry":{"type":"Point","coordinates":[77.6292192,13.0012499]},"type":"Feature","properties":{"amenity":"restaurant","cuisine":"indian","name":"Up Beat"}},{"geometry":{"type":"Point","coordinates":[77.7131282,12.9923298]},"type":"Feature","properties":{"addr:postcode":560048,"addr:street":"KR Puram - ITPB Road","amenity":"restaurant","name":"Zingron"}},{"geometry":{"type":"Point","coordinates":[77.6452196,12.9215863]},"type":"Feature","properties":{"amenity":"restaurant","cuisine":"indian","name":"Nandana Restraunt"}},{"geometry":{"type":"Point","coordinates":[77.6074274,12.9708868]},"type":"Feature","properties":{"amenity":"restaurant","name":"Highland China"}},{"geometry":{"type":"Point","coordinates":[77.6057745,12.9711892]},"type":"Feature","properties":{"amenity":"restaurant","name":"Paramount Restaurant"}},{"geometry":{"type":"Point","coordinates":[77.6999302,12.9504817]},"type":"Feature","properties":{"addr:street":"Outer Ring Road","amenity":"restaurant","cuisine":"international","name":"Phileas  Hogg"}},{"geometry":{"type":"Point","coordinates":[77.6102112,12.9139161]},"type":"Feature","properties":{"amenity":"restaurant","name":"Swadista Ahara"}},{"geometry":{"type":"Point","coordinates":[77.5998808,12.972953]},"type":"Feature","properties":{"amenity":"restaurant","cuisine":"indian","name":"Airlines"}},{"geometry":{"type":"Point","coordinates":[77.5994555,12.9746137]},"type":"Feature","properties":{"addr:street":"Lavelle Road","amenity":"restaurant","cuisine":"chinese","name":"Rice Bowl"}},{"geometry":{"type":"Point","coordinates":[77.5866127,12.9643003]},"type":"Feature","properties":{"amenity":"restaurant","cuisine":"vegetarian","name":"Kamat"}},{"geometry":{"type":"Point","coordinates":[77.7100551,12.9447245]},"type":"Feature","properties":{"amenity":"restaurant","name":"Vagdevi School Canteen"}},{"geometry":{"type":"Point","coordinates":[77.5593669,13.0300686]},"type":"Feature","properties":{"amenity":"restaurant","cuisine":"indian","name":"New Sagar"}},{"geometry":{"type":"Point","coordinates":[77.6475155,12.841482]},"type":"Feature","properties":{"amenity":"restaurant","name":"Mast Kalandar","website":"http://www.mastkalandar.com/"}},{"geometry":{"type":"Point","coordinates":[77.6550416,12.9591717]},"type":"Feature","properties":{"amenity":"restaurant","cuisine":"indian","name":"Suchitra Biriyani"}},{"geometry":{"type":"Point","coordinates":[77.6560367,12.9594724]},"type":"Feature","properties":{"amenity":"restaurant","cuisine":"vegetarian","name":"Udupi Park"}},{"geometry":{"type":"Point","coordinates":[77.6514101,12.8405564]},"type":"Feature","properties":{"amenity":"restaurant","cuisine":"indian","name":"Mama-G"}},{"geometry":{"type":"Point","coordinates":[77.6636625,12.8405093]},"type":"Feature","properties":{"amenity":"restaurant","cuisine":"pizza","name":"Pizza Hut","phone":918042482222,"website":"http://pizzahut.co.in/"}},{"geometry":{"type":"Point","coordinates":[77.6638107,12.8401382]},"type":"Feature","properties":{"amenity":"restaurant","cuisine":"chinese","name":"Chung Wah","website":"http://www.chungwahrestaurants.co.in/"}},{"geometry":{"type":"Point","coordinates":[77.6638003,12.8401806]},"type":"Feature","properties":{"amenity":"restaurant","cuisine":"indian","name":"Emperor"}},{"geometry":{"type":"Point","coordinates":[77.6400371,12.952399]},"type":"Feature","properties":{"amenity":"restaurant","cuisine":"vegetarian","name":"Mast Kalandar"}},{"geometry":{"type":"Point","coordinates":[77.6577333,12.8479685]},"type":"Feature","properties":{"amenity":"restaurant","cuisine":"indian","name":"Aastha"}},{"geometry":{"type":"Point","coordinates":[77.7360104,12.9871697]},"type":"Feature","properties":{"addr:housename":"Park Square Mall","addr:housenumber":"G-01","addr:postcode":560066,"addr:street":"Whitefield Road","amenity":"restaurant","cuisine":"mexican","name":"Habanero"}},{"geometry":{"type":"Point","coordinates":[77.5861051,12.9251489]},"type":"Feature","properties":{"amenity":"restaurant","cuisine":"burger;sandwich","name":"Subway","website":"http://www.subway.com/"}},{"geometry":{"type":"Point","coordinates":[77.7521003,12.9793422]},"type":"Feature","properties":{"addr:housename":"Savanna Sarovar Premiere","amenity":"restaurant","cuisine":"chinese","name":"The Oriental Blossom"}},{"geometry":{"type":"Point","coordinates":[77.5800176,12.9868232]},"type":"Feature","properties":{"amenity":"restaurant","name":"Richie-Rich"}},{"geometry":{"type":"Point","coordinates":[77.5851479,12.9168408]},"type":"Feature","properties":{"amenity":"restaurant","cuisine":"vegetarian","name":"Cable Car Restaurant"}},{"geometry":{"type":"Point","coordinates":[77.5852553,12.9330334]},"type":"Feature","properties":{"amenity":"restaurant","cuisine":"chinese","name":"3 Quarter Chinese"}},{"geometry":{"type":"Point","coordinates":[77.6228542,12.9311975]},"type":"Feature","properties":{"amenity":"restaurant","cuisine":"vegetarian","name":"Utsav"}},{"geometry":{"type":"Point","coordinates":[77.5801737,12.9554704]},"type":"Feature","properties":{"amenity":"restaurant","cuisine":"indian","name":"Kamat Minerva"}},{"geometry":{"type":"Point","coordinates":[77.5782687,12.9877001]},"type":"Feature","properties":{"amenity":"restaurant","name":"Park-n-Eat"}},{"geometry":{"type":"Point","coordinates":[77.5797797,12.978049]},"type":"Feature","properties":{"amenity":"restaurant","name":"Kanishka"}},{"geometry":{"type":"Point","coordinates":[77.5938601,12.9891068]},"type":"Feature","properties":{"amenity":"restaurant","cuisine":"chinese","name":"Chung's"}},{"geometry":{"type":"Point","coordinates":[77.5898723,12.9656072]},"type":"Feature","properties":{"amenity":"restaurant","name":"V T Paradise"}},{"geometry":{"type":"Point","coordinates":[77.6385321,12.9649785]},"type":"Feature","properties":{"amenity":"restaurant","cuisine":"indian","name":"Nandhini"}},{"geometry":{"type":"Point","coordinates":[77.709181,12.9574009]},"type":"Feature","properties":{"amenity":"restaurant","name":"Palm Springs"}},{"geometry":{"type":"Point","coordinates":[77.6575979,12.8487369]},"type":"Feature","properties":{"addr:housename":"SJR Equinox Commercial Complex","amenity":"restaurant","cuisine":"chinese","name":"Beijing Bites"}},{"geometry":{"type":"Point","coordinates":[77.6009334,12.9721946]},"type":"Feature","properties":{"amenity":"restaurant","cuisine":"indian","name":"MTR"}},{"geometry":{"type":"Point","coordinates":[77.600877,12.9722076]},"type":"Feature","properties":{"amenity":"restaurant","name":"Egg Factory","wheelchair":"limited"}},{"geometry":{"type":"Point","coordinates":[77.6159365,12.9351065]},"type":"Feature","properties":{"amenity":"restaurant","cuisine":"indian","name":"Meghna Restaurant"}},{"geometry":{"type":"Point","coordinates":[77.729344,12.9558315]},"type":"Feature","properties":{"amenity":"restaurant","name":"Bhagini Iris"}},{"geometry":{"type":"Point","coordinates":[77.7331316,12.9572347]},"type":"Feature","properties":{"amenity":"restaurant","cuisine":"italian","name":"Cafe Bel Cibo @ Patio"}},{"geometry":{"type":"Point","coordinates":[77.7096536,12.9876837]},"type":"Feature","properties":{"amenity":"restaurant","name":"Kerela Restaurant"}},{"geometry":{"type":"Point","coordinates":[77.5895053,12.934392]},"type":"Feature","properties":{"addr:housename":"Amrutesh Darshini","addr:postcode":560011,"addr:street":"Byrasandra Main Road","amenity":"restaurant","name":"Amrutesh Darshini"}},{"geometry":{"type":"Point","coordinates":[77.6217398,12.9732119]},"type":"Feature","properties":{"amenity":"restaurant","name":"TGI Friday's"}},{"geometry":{"type":"Point","coordinates":[77.5943718,12.9830301]},"type":"Feature","properties":{"addr:postcode":560001,"addr:street":"Infantry Road","amenity":"restaurant","cuisine":"vegetarian","name":"Nisarga"}},{"geometry":{"type":"Point","coordinates":[77.6062003,13.026256]},"type":"Feature","properties":{"alt_name":"New Punjabi","amenity":"restaurant","cuisine":"vegetarian","name":"Punjabi Dhaba"}},{"geometry":{"type":"Point","coordinates":[77.6555768,13.0187152]},"type":"Feature","properties":{"amenity":"restaurant","cuisine":"indian","name":"Bhagini","opening_hours":"Mo-Fr 08:30-20:00"}},{"geometry":{"type":"Point","coordinates":[77.6169502,12.9728094]},"type":"Feature","properties":{"amenity":"restaurant","name":"Adigas"}},{"geometry":{"type":"Point","coordinates":[77.6618674,13.0138084]},"type":"Feature","properties":{"amenity":"restaurant","name":"Tamarind"}},{"geometry":{"type":"Point","coordinates":[77.5867606,12.9118641]},"type":"Feature","properties":{"amenity":"restaurant","name":"Aditya"}},{"geometry":{"type":"Point","coordinates":[77.6134109,12.9215964]},"type":"Feature","properties":{"amenity":"restaurant","name":"Pongal Veg Cafe"}},{"geometry":{"type":"Point","coordinates":[77.6122951,12.9197873]},"type":"Feature","properties":{"amenity":"restaurant","name":"Dominos Pizza"}},{"geometry":{"type":"Point","coordinates":[77.5860284,12.9658764]},"type":"Feature","properties":{"amenity":"restaurant","cuisine":"vegetarian","name":"Pai Vihar"}},{"geometry":{"type":"Point","coordinates":[77.5637259,12.9294812]},"type":"Feature","properties":{"amenity":"restaurant","cuisine":"vegetarian","name":"Laxmi Sagar Deluxe"}},{"geometry":{"type":"Point","coordinates":[77.5931523,12.9170457]},"type":"Feature","properties":{"amenity":"restaurant","cuisine":"vegetarian","name":"Raghavendra Upahara"}},{"geometry":{"type":"Point","coordinates":[77.6369016,13.0256651]},"type":"Feature","properties":{"amenity":"restaurant","cuisine":"burger","name":"McDonalds"}},{"geometry":{"type":"Point","coordinates":[77.6434526,13.0095498]},"type":"Feature","properties":{"amenity":"restaurant","cuisine":"indian","name":"Uttam Sagar"}},{"geometry":{"type":"Point","coordinates":[77.6427176,13.0144106]},"type":"Feature","properties":{"amenity":"restaurant","cuisine":"indian","name":"Adigas Annapoorna"}},{"geometry":{"type":"Point","coordinates":[77.6475134,13.0119854]},"type":"Feature","properties":{"amenity":"restaurant","cuisine":"indian","name":"Srinidhi Upchaar"}},{"geometry":{"type":"Point","coordinates":[77.6274121,12.9365165]},"type":"Feature","properties":{"amenity":"restaurant","name":"Great Indian Thali"}},{"geometry":{"type":"Point","coordinates":[77.6980898,12.9536059]},"type":"Feature","properties":{"alt_name":"Tulashi Restaurant","amenity":"restaurant","cuisine":"Odia","name":"Odia Mess"}},{"geometry":{"type":"Point","coordinates":[77.571437,13.028271]},"type":"Feature","properties":{"addr:city":"Bangalore","addr:street":"New BEL Road","amenity":"restaurant","cuisine":"andhra_","name":"Godavari","source":"survey"}},{"geometry":{"type":"Point","coordinates":[77.6854619,12.9298903]},"type":"Feature","properties":{"addr:housename":"chenai's","addr:postcode":560037,"amenity":"restaurant","cuisine":"indian","name":"Chenais","source":"self"}},{"geometry":{"type":"Point","coordinates":[77.6504678,12.9683052]},"type":"Feature","properties":{"addr:postcode":560008,"addr:street":"Jeevan Bhima Nagar Main road,","amenity":"restaurant","name":"Kaayal","website":"http://kaayal.in/"}},{"geometry":{"type":"Point","coordinates":[77.668096,13.0118335]},"type":"Feature","properties":{"amenity":"restaurant","cuisine":"vegetarian","name":"Uttam Sagar"}},{"geometry":{"type":"Point","coordinates":[77.6650142,13.0127088]},"type":"Feature","properties":{"amenity":"restaurant","cuisine":"vegetarian","name":"SAVI RUCHI"}},{"geometry":{"type":"Point","coordinates":[77.6309663,12.9353919]},"type":"Feature","properties":{"amenity":"restaurant","cuisine":"vegetarian","name":"Khushboo's pure veg"}},{"geometry":{"type":"Point","coordinates":[77.5898443,12.9166803]},"type":"Feature","properties":{"addr:housename":"Pai Comforts","amenity":"restaurant","cuisine":"vegetarian","name":"Pai Princess"}},{"geometry":{"type":"Point","coordinates":[77.6084985,12.9715903]},"type":"Feature","properties":{"amenity":"restaurant","cuisine":"vegetarian","name":"Palm Grove"}},{"geometry":{"type":"Point","coordinates":[77.6065672,12.9718928]},"type":"Feature","properties":{"amenity":"restaurant","cuisine":"vegetarian","name":"Sangam"}},{"geometry":{"type":"Point","coordinates":[77.5380953,12.968225]},"type":"Feature","properties":{"amenity":"restaurant","cuisine":"indian","name":"Nisarga Andhra Style"}},{"geometry":{"type":"Point","coordinates":[77.5259368,12.9583342]},"type":"Feature","properties":{"amenity":"restaurant","cuisine":"indian","name":"Deewar Bar & Restaurant"}},{"geometry":{"type":"Point","coordinates":[77.513258,12.9603129]},"type":"Feature","properties":{"amenity":"restaurant","cuisine":"indian","name":"Ron-Inn Bar & Restaurant"}},{"geometry":{"type":"Point","coordinates":[77.5367864,12.9803893]},"type":"Feature","properties":{"addr:street":"Magadi Road","amenity":"restaurant","cuisine":"vegetarian","name":"Anandabhavan Sweerts & A2B restaurant"}},{"geometry":{"type":"Point","coordinates":[77.5354587,12.9809408]},"type":"Feature","properties":{"addr:housename":" Housing Board Bus Stop","addr:street":"Magadi Road","amenity":"restaurant","cuisine":"vegetarian","name":"Vasudev Adigas","source":"Survey"}},{"geometry":{"type":"Point","coordinates":[77.5364538,12.9693594]},"type":"Feature","properties":{"amenity":"restaurant","cuisine":"asian","name":"Beijing Bites"}},{"geometry":{"type":"Point","coordinates":[77.6157906,12.9348525]},"type":"Feature","properties":{"amenity":"restaurant","cuisine":"indian","name":"Hotel Empire"}},{"geometry":{"type":"Point","coordinates":[77.6163371,12.9340146]},"type":"Feature","properties":{"amenity":"restaurant","cuisine":"chinese","internet_access":"no","name":"Khawa Karpo"}},{"geometry":{"type":"Point","coordinates":[77.6215457,12.9417545]},"type":"Feature","properties":{"amenity":"restaurant","cuisine":"indian","name":"Sagar Fast Food","opening_hours":"till 22:00"}},{"geometry":{"type":"Point","coordinates":[77.5694742,12.9577755]},"type":"Feature","properties":{"addr:postcode":560018,"addr:street":"1st Cross, 5th Main, Chamarajpet","amenity":"restaurant","cuisine":"indian","designation":"S.L.V","name":"S.L.V  Hotel"}},{"geometry":{"type":"Point","coordinates":[77.5934403,12.9170404]},"type":"Feature","properties":{"amenity":"restaurant","cuisine":"vegetarian","name":"UpSouth"}},{"geometry":{"type":"Point","coordinates":[77.5790523,12.9552387]},"type":"Feature","properties":{"amenity":"restaurant","cuisine":"indian","name":"Nandini"}},{"geometry":{"type":"Point","coordinates":[77.519671,13.0291469]},"type":"Feature","properties":{"amenity":"restaurant","cuisine":"vegetarian"}},{"geometry":{"type":"Point","coordinates":[77.5199016,13.0287027]},"type":"Feature","properties":{"amenity":"restaurant","cuisine":"vegetarian"}},{"geometry":{"type":"Point","coordinates":[77.5084325,13.0203561]},"type":"Feature","properties":{"amenity":"restaurant","cuisine":"vegetarian"}},{"geometry":{"type":"Point","coordinates":[77.5475818,12.9976921]},"type":"Feature","properties":{"amenity":"restaurant","cuisine":"indian","name":"Kadamba Veg"}},{"geometry":{"type":"Point","coordinates":[77.5378109,12.9886227]},"type":"Feature","properties":{"amenity":"restaurant","name":"Nisarga Andhra Style"}},{"geometry":{"type":"Point","coordinates":[77.5385029,12.9920909]},"type":"Feature","properties":{"amenity":"restaurant","name":"Suggi - Taste of Malnad"}},{"geometry":{"type":"Point","coordinates":[77.5271272,12.9612053]},"type":"Feature","properties":{"amenity":"restaurant","name":"Dominos Pizza"}},{"geometry":{"type":"Point","coordinates":[77.5772631,12.9793911]},"type":"Feature","properties":{"amenity":"restaurant","name":"Madappa Mess"}},{"geometry":{"type":"Point","coordinates":[77.5997267,12.9713119]},"type":"Feature","properties":{"amenity":"restaurant","name":"F & B"}},{"geometry":{"type":"Point","coordinates":[77.6614338,12.9938739]},"type":"Feature","properties":{"addr:housename":"The Bay, RMZ Infinity","addr:postcode":560016,"addr:street":"Old Madras Road","amenity":"restaurant","name":"Indijoe's"}},{"geometry":{"type":"Point","coordinates":[77.6371623,12.9811552]},"type":"Feature","properties":{"amenity":"restaurant","name":"Vasudev Adigas"}},{"geometry":{"type":"Point","coordinates":[77.6148249,12.975933]},"type":"Feature","properties":{"amenity":"restaurant","name":"Vasudev Adigas"}},{"geometry":{"type":"Point","coordinates":[77.6607309,12.9937763]},"type":"Feature","properties":{"addr:housename":"The Bay, RMZ Infinity","addr:postcode":560016,"addr:street":"Old Madras Road","amenity":"restaurant","name":"Punjab"}},{"geometry":{"type":"Point","coordinates":[77.5593081,12.9831416]},"type":"Feature","properties":{"amenity":"restaurant","name":"Dominos Pizza"}},{"geometry":{"type":"Point","coordinates":[77.552547,12.9989198]},"type":"Feature","properties":{"amenity":"restaurant","name":"Jalpaan"}},{"geometry":{"type":"Point","coordinates":[77.5597454,12.9831807]},"type":"Feature","properties":{"amenity":"restaurant","cuisine":"burger","name":"McDonald's"}},{"geometry":{"type":"Point","coordinates":[77.571022,12.9991733]},"type":"Feature","properties":{"amenity":"restaurant","name":"Hotel Janata"}},{"geometry":{"type":"Point","coordinates":[77.5833269,12.9334671]},"type":"Feature","properties":{"amenity":"restaurant","name":"The Guha"}},{"geometry":{"type":"Point","coordinates":[77.5934768,12.9219463]},"type":"Feature","properties":{"amenity":"restaurant","name":"Tahini Garden"}},{"geometry":{"type":"Point","coordinates":[77.5933671,12.923194]},"type":"Feature","properties":{"amenity":"restaurant","name":"Eeshanya"}},{"geometry":{"type":"Point","coordinates":[77.5315149,12.9760661]},"type":"Feature","properties":{"addr:street":"Nagarbhavi Main Road","amenity":"restaurant","name":"Ayodhya Food Line","source":"Survey"}},{"geometry":{"type":"Point","coordinates":[77.5397309,12.972957]},"type":"Feature","properties":{"amenity":"restaurant","name":"Akshata Nati Style"}},{"geometry":{"type":"Point","coordinates":[77.5395347,12.9729139]},"type":"Feature","properties":{"amenity":"restaurant","name":"Park View Bar & Restaurant"}},{"geometry":{"type":"Point","coordinates":[77.5403716,12.9730838]},"type":"Feature","properties":{"amenity":"restaurant","name":"Sagar Restaurant"}},{"geometry":{"type":"Point","coordinates":[77.535785,12.9808177]},"type":"Feature","properties":{"addr:housename":"Near Housing  Board Bus Stop","addr:street":"Magadi Road","amenity":"restaurant","name":"Amaravati Andhra Style"}},{"geometry":{"type":"Point","coordinates":[77.5962374,12.9717891]},"type":"Feature","properties":{"amenity":"restaurant","cuisine":"italian","name":"Toscano"}},{"geometry":{"type":"Point","coordinates":[77.5961248,12.97181]},"type":"Feature","properties":{"amenity":"restaurant","cuisine":"indian","name":"Rajdhani"}},{"geometry":{"type":"Point","coordinates":[77.5961248,12.9719198]},"type":"Feature","properties":{"amenity":"restaurant","cuisine":"chinese","name":"Tasty Tangles"}},{"geometry":{"type":"Point","coordinates":[77.5958834,12.9718414]},"type":"Feature","properties":{"amenity":"restaurant","cuisine":"french","name":"Cafe Noir"}},{"geometry":{"type":"Point","coordinates":[77.6008347,12.971465]},"type":"Feature","properties":{"amenity":"restaurant","cuisine":"ice_cream","name":"Naturals Ice-cream"}},{"geometry":{"type":"Point","coordinates":[77.605196,12.958286]},"type":"Feature","properties":{"amenity":"restaurant","cuisine":"international","name":"Y! Cafe"}},{"geometry":{"type":"Point","coordinates":[77.6032726,12.9651862]},"type":"Feature","properties":{"amenity":"restaurant","cuisine":"italian","name":"Under the Mango Tree"}},{"geometry":{"type":"Point","coordinates":[77.5991698,12.9624485]},"type":"Feature","properties":{"amenity":"restaurant","cuisine":"pizza","name":"Pizza Hut"}},{"geometry":{"type":"Point","coordinates":[77.5966485,12.9638704]},"type":"Feature","properties":{"amenity":"restaurant","cuisine":"chinese","name":"Aromas of China"}},{"geometry":{"type":"Point","coordinates":[77.6000657,12.9675507]},"type":"Feature","properties":{"amenity":"restaurant","cuisine":"japanese","name":"Harimas"}},{"geometry":{"type":"Point","coordinates":[77.6030161,12.9677179]},"type":"Feature","properties":{"amenity":"restaurant","cuisine":"international","name":"Green Theory Cafe"}},{"geometry":{"type":"Point","coordinates":[77.6011291,12.9651185]},"type":"Feature","properties":{"amenity":"restaurant","cuisine":"regional","name":"Biriyani House"}},{"geometry":{"type":"Point","coordinates":[77.6194475,12.9865706]},"type":"Feature","properties":{"amenity":"restaurant","cuisine":"international","name":"Rogue Elephant"}},{"geometry":{"type":"Point","coordinates":[77.616548,12.9758154]},"type":"Feature","properties":{"amenity":"restaurant","cuisine":"thai","name":"Benjerong"}},{"geometry":{"type":"Point","coordinates":[77.7297525,12.9550393]},"type":"Feature","properties":{"amenity":"restaurant","cuisine":"international","name":"Chez Mariannick"}},{"geometry":{"type":"Point","coordinates":[77.6165158,12.9758363]},"type":"Feature","properties":{"amenity":"restaurant","cuisine":"regional","name":"Ente Kerelam"}},{"geometry":{"type":"Point","coordinates":[77.5709326,13.0294937]},"type":"Feature","properties":{"amenity":"restaurant","cuisine":"chinese","name":"Relish"}},{"geometry":{"type":"Point","coordinates":[77.5929267,12.9065087]},"type":"Feature","properties":{"addr:housename":"Emlion Hotel","addr:postcode":560078,"addr:street":"15th Cross","amenity":"restaurant","name":"The Onyx"}},{"geometry":{"type":"Point","coordinates":[77.5939433,12.9065217]},"type":"Feature","properties":{"amenity":"restaurant","cuisine":"regional","name":"Suggi"}},{"geometry":{"type":"Point","coordinates":[77.6574848,12.8391719]},"type":"Feature","properties":{"amenity":"restaurant","cuisine":"indian","name":"Andhra Mess"}},{"geometry":{"type":"Point","coordinates":[77.6593925,12.839628]},"type":"Feature","properties":{"amenity":"restaurant","cuisine":"chicken","designation":"Kentucky Fried Chicken","name":"KFC"}},{"geometry":{"type":"Point","coordinates":[77.6577563,12.8391715]},"type":"Feature","properties":{"amenity":"restaurant","cuisine":"indian","name":"Kerala Mess"}},{"geometry":{"type":"Point","coordinates":[77.6573722,12.8391708]},"type":"Feature","properties":{"amenity":"restaurant","cuisine":"indian","name":"Punjabi Dhaba"}},{"geometry":{"type":"Point","coordinates":[77.5660189,13.0367737]},"type":"Feature","properties":{"amenity":"restaurant","cuisine":"indian","name":"Via Lucknow"}},{"geometry":{"type":"Point","coordinates":[77.5728692,13.0282447]},"type":"Feature","properties":{"amenity":"restaurant","cuisine":"international","name":"Ice and Spice"}},{"geometry":{"type":"Point","coordinates":[77.6203167,12.8945443]},"type":"Feature","properties":{"amenity":"restaurant","cuisine":"indian","name":"Adda"}},{"geometry":{"type":"Point","coordinates":[77.5787544,12.9543228]},"type":"Feature","properties":{"amenity":"restaurant","name":"New Modern Hotel"}},{"geometry":{"type":"Point","coordinates":[77.5816768,12.8929275]},"type":"Feature","properties":{"amenity":"restaurant","cuisine":"indian","name":"Aditya"}},{"geometry":{"type":"Point","coordinates":[77.6028114,12.9752074]},"type":"Feature","properties":{"amenity":"restaurant","name":"Angeethi"}},{"geometry":{"type":"Point","coordinates":[77.6054185,12.9746689]},"type":"Feature","properties":{"addr:housenumber":22,"addr:street":"Church Street","amenity":"restaurant","name":"Three quarters Chineese"}},{"geometry":{"type":"Point","coordinates":[77.607406,12.9707614]},"type":"Feature","properties":{"amenity":"restaurant","name":"Cafe Masala"}},{"geometry":{"type":"Point","coordinates":[77.6052386,12.9747969]},"type":"Feature","properties":{"addr:housename":"Asha Enclave","addr:housenumber":"3rd Floor","addr:street":"Church Street","amenity":"restaurant","name":"Oye Shava"}},{"geometry":{"type":"Point","coordinates":[77.6047707,12.9802977]},"type":"Feature","properties":{"amenity":"restaurant","name":"Samarkhand"}},{"geometry":{"type":"Point","coordinates":[77.5819949,12.8865339]},"type":"Feature","properties":{"amenity":"restaurant","cuisine":"indian","name":"Kabab Mehal"}},{"geometry":{"type":"Point","coordinates":[77.6512271,12.9682997]},"type":"Feature","properties":{"addr:housename":"Panchami Upahar","addr:housenumber":513,"addr:postcode":560075,"addr:street":"Jeevan Bheema Nagar","amenity":"restaurant","cuisine":"vegetarian","name":"Panchami Upahar","website":"www.panchamiupahar.co.cc"}},{"geometry":{"type":"Point","coordinates":[77.6266554,12.9725555]},"type":"Feature","properties":{"amenity":"restaurant","name":"Ruchi Restaurant"}},{"geometry":{"type":"Point","coordinates":[77.5729798,13.0282184]},"type":"Feature","properties":{"amenity":"restaurant","name":"Frappy's"}},{"geometry":{"type":"Point","coordinates":[77.5791107,12.8920259]},"type":"Feature","properties":{"amenity":"restaurant","cuisine":"indian","name":"Bangalooru Tiffany's"}},{"geometry":{"type":"Point","coordinates":[77.5819348,12.8908929]},"type":"Feature","properties":{"amenity":"restaurant","cuisine":"indian","name":"SLV"}},{"geometry":{"type":"Point","coordinates":[77.5821065,12.8872845]},"type":"Feature","properties":{"amenity":"restaurant","cuisine":"indian","name":"Kakal Kai Ruchi"}},{"geometry":{"type":"Point","coordinates":[77.6513716,12.8489155]},"type":"Feature","properties":{"amenity":"restaurant","cuisine":"indian","name":"Vyanjan Restaurant"}},{"geometry":{"type":"Point","coordinates":[77.6370763,12.9255152]},"type":"Feature","properties":{"amenity":"restaurant","cuisine":"indian","name":"Barbeque Nation"}},{"geometry":{"type":"Point","coordinates":[77.5860483,12.8960869]},"type":"Feature","properties":{"amenity":"restaurant","cuisine":"italian","name":"Veekes and Thomas"}},{"geometry":{"type":"Point","coordinates":[77.6028823,12.9737798]},"type":"Feature","properties":{"addr:housename":"HM Eleganza","addr:street":"Museum Road","amenity":"restaurant","name":"Chutney Change"}},{"geometry":{"type":"Point","coordinates":[77.6028204,12.9753846]},"type":"Feature","properties":{"addr:street":"Church Street","amenity":"restaurant","name":"Empire"}},{"geometry":{"type":"Point","coordinates":[77.6469991,12.9752513]},"type":"Feature","properties":{"amenity":"restaurant","name":"Oye Amritsar"}},{"geometry":{"type":"Point","coordinates":[77.5342464,12.9579827]},"type":"Feature","properties":{"addr:housename":"Poornima Complex","addr:housenumber":"1st Floor","addr:street":"RPC Layout","amenity":"restaurant","name":"Gandharva Sip & Dine"}},{"geometry":{"type":"Point","coordinates":[77.5248426,12.9590436]},"type":"Feature","properties":{"amenity":"restaurant","cuisine":"fish","name":"Hotel Manjushree"}},{"geometry":{"type":"Point","coordinates":[77.5486383,12.9829855]},"type":"Feature","properties":{"amenity":"restaurant","name":1947}},{"geometry":{"type":"Point","coordinates":[77.5466274,12.8827217]},"type":"Feature","properties":{"amenity":"restaurant","name":"Vasudev Adigas"}},{"geometry":{"type":"Point","coordinates":[77.5768905,12.92545]},"type":"Feature","properties":{"amenity":"restaurant","name":"Jalpaan"}},{"geometry":{"type":"Point","coordinates":[77.7359602,12.9869399]},"type":"Feature","properties":{"addr:housename":"Park Square","addr:street":"Whitefield Road","amenity":"restaurant","cuisine":"international","name":"Barbeque Nation"}},{"geometry":{"type":"Point","coordinates":[77.6148025,13.0005858]},"type":"Feature","properties":{"addr:housenumber":"No.69,1st floor,","addr:postcode":560005,"addr:street":"M.M Road, Frazer Town, Bangalore","amenity":"restaurant","cuisine":"Persian, Arabic & Bhatkali Cuisine","name":"Alibaba Cafe & Restaurant"}},{"geometry":{"type":"Point","coordinates":[77.5821622,12.8871258]},"type":"Feature","properties":{"amenity":"restaurant","cuisine":"indian","name":"Ateal"}},{"geometry":{"type":"Point","coordinates":[77.5525146,12.9753614]},"type":"Feature","properties":{"amenity":"restaurant","name":"Mayura"}},{"geometry":{"type":"Point","coordinates":[77.5928689,13.0594414]},"type":"Feature","properties":{"amenity":"restaurant","cuisine":"regional","name":"tuc inn"}},{"geometry":{"type":"Point","coordinates":[77.5818071,12.8943291]},"type":"Feature","properties":{"amenity":"restaurant","cuisine":"indian","name":"Sarovara"}},{"geometry":{"type":"Point","coordinates":[77.5794891,12.9867912]},"type":"Feature","properties":{"addr:housename":"Shivananda Stores Complex","addr:street":"Kumarakripa East","amenity":"restaurant","cuisine":"indian","name":"Coastal Express"}},{"geometry":{"type":"Point","coordinates":[77.5425712,12.9983691]},"type":"Feature","properties":{"addr:housename":"Near Shankar Mutt Signal","addr:street":"Modi Hospital Road","amenity":"restaurant","name":"Papa John's Pizza"}},{"geometry":{"type":"Point","coordinates":[77.5798273,12.9491655]},"type":"Feature","properties":{"amenity":"restaurant","cuisine":"indian","name":"Kamat","operator":"Kamat"}},{"geometry":{"type":"Point","coordinates":[77.7251867,12.9557291]},"type":"Feature","properties":{"amenity":"restaurant","cuisine":"chinese","name":"Mainland China"}},{"geometry":{"type":"Point","coordinates":[77.5698062,13.030361]},"type":"Feature","properties":{"amenity":"restaurant","cuisine":"indian","name":"Ghar ka Khana"}},{"geometry":{"type":"Point","coordinates":[77.5855754,12.9034388]},"type":"Feature","properties":{"amenity":"restaurant","cuisine":"indian","name":"Dose Camp","operator":"Dose Camp"}},{"geometry":{"type":"Point","coordinates":[77.5698492,13.0305311]},"type":"Feature","properties":{"amenity":"restaurant","cuisine":"turkish","name":"Darband"}},{"geometry":{"type":"Point","coordinates":[77.6699725,12.9252771]},"type":"Feature","properties":{"amenity":"restaurant","cuisine":"indian","name":"Posh Palates"}},{"geometry":{"type":"Point","coordinates":[77.5343556,12.9336536]},"type":"Feature","properties":{"amenity":"restaurant","cuisine":"indian","name":"PES Food Court"}},{"geometry":{"type":"Point","coordinates":[77.5750078,12.9788091]},"type":"Feature","properties":{"amenity":"restaurant","name":"Rajadhani restaurant"}},{"geometry":{"type":"Point","coordinates":[77.5553899,13.0117153]},"type":"Feature","properties":{"amenity":"restaurant","cuisine":"steak_house","name":"Kobe Sizzlers"}},{"geometry":{"type":"Point","coordinates":[77.5553792,13.0113495]},"type":"Feature","properties":{"addr:city":"Bangalore","addr:housename":"Upper Ground Floow, Orion Mall","addr:housenumber":"UG16","addr:street":"Dr. Rajkumar Road","amenity":"restaurant","cuisine":"italian","name":"Toscano's"}},{"geometry":{"type":"Point","coordinates":[77.5554221,13.0106799]},"type":"Feature","properties":{"amenity":"restaurant","cuisine":"chinese","name":"Mainland China"}},{"geometry":{"type":"Point","coordinates":[77.62744,12.9364824]},"type":"Feature","properties":{"amenity":"restaurant","name":"Barbeque Factory"}},{"geometry":{"type":"Point","coordinates":[77.5891475,12.8578959]},"type":"Feature","properties":{"amenity":"restaurant","cuisine":"indian","name":"Kubera Biriyani Paradise"}},{"geometry":{"type":"Point","coordinates":[77.63337,12.8989195]},"type":"Feature","properties":{"amenity":"restaurant","name":"Subha Restaurant"}},{"geometry":{"type":"Point","coordinates":[77.5820587,12.8883745]},"type":"Feature","properties":{"amenity":"restaurant","cuisine":"chinese;thai","name":"Beiging Bites"}},{"geometry":{"type":"Point","coordinates":[77.5816863,12.8912791]},"type":"Feature","properties":{"amenity":"restaurant","cuisine":"pizza","name":"Pizza Corner"}},{"geometry":{"type":"Point","coordinates":[77.6081971,13.0304891]},"type":"Feature","properties":{"addr:housename":"SMS Complex","addr:housenumber":"G3","addr:postcode":560032,"addr:street":"KHB Main Road","amenity":"restaurant","cuisine":"regional","name":"Peacock Restaurant"}},{"geometry":{"type":"Point","coordinates":[77.5597805,12.9196702]},"type":"Feature","properties":{"amenity":"restaurant","name":"Bangalore Agarwal Bhawana"}},{"geometry":{"type":"Point","coordinates":[77.5020352,13.0604164]},"type":"Feature","properties":{"amenity":"restaurant","cuisine":"indian","name":"Annapurna"}},{"geometry":{"type":"Point","coordinates":[77.6219099,12.933447]},"type":"Feature","properties":{"amenity":"restaurant","cuisine":"italian","name":"Chianti"}},{"geometry":{"type":"Point","coordinates":[77.5782051,12.9274299]},"type":"Feature","properties":{"amenity":"restaurant","name":"Cafe Coffee Day"}},{"geometry":{"type":"Point","coordinates":[77.6538133,12.8509064]},"type":"Feature","properties":{"amenity":"restaurant","name":"Fusion Meals"}},{"geometry":{"type":"Point","coordinates":[77.6055915,12.9655328]},"type":"Feature","properties":{"addr:housenumber":20,"addr:street":"Castle Street","amenity":"restaurant","name":"Hae Kum Gang (Korean/Japanese)"}},{"geometry":{"type":"Point","coordinates":[77.7215053,12.9832977]},"type":"Feature","properties":{"amenity":"restaurant","name":"Windmills Craftworks"}},{"geometry":{"type":"Point","coordinates":[77.5817631,12.8920876]},"type":"Feature","properties":{"amenity":"restaurant","cuisine":"indian","name":"The Spice House","source":"GPS"}},{"geometry":{"type":"Point","coordinates":[77.644106,12.9785347]},"type":"Feature","properties":{"amenity":"restaurant","cuisine":"vegetarian","name":"Mast Kalander"}},{"geometry":{"type":"Point","coordinates":[77.6406192,12.9792694]},"type":"Feature","properties":{"amenity":"restaurant","wheelchair":"yes"}},{"geometry":{"type":"Point","coordinates":[77.6407184,12.9776149]},"type":"Feature","properties":{"amenity":"restaurant","cuisine":"chicken","name":"four season"}},{"geometry":{"type":"Point","coordinates":[77.635717,13.0145004]},"type":"Feature","properties":{"amenity":"restaurant","cuisine":"indian","name":"Empire Restaurant"}},{"geometry":{"type":"Point","coordinates":[77.5075094,12.9608966]},"type":"Feature","properties":{"amenity":"restaurant","name":"Swathi Restaurant"}},{"geometry":{"type":"Point","coordinates":[77.581757,12.8892265]},"type":"Feature","properties":{"amenity":"restaurant","cuisine":"pizza","name":"Domino's","source":"GPS"}},{"geometry":{"type":"Point","coordinates":[77.534101,12.9922639]},"type":"Feature","properties":{"amenity":"restaurant","name":"Ayodhya Sagar"}},{"geometry":{"type":"Point","coordinates":[77.5368476,12.9879045]},"type":"Feature","properties":{"amenity":"restaurant","name":"Ayodhya fast food"}},{"geometry":{"type":"Point","coordinates":[77.5407958,12.991114]},"type":"Feature","properties":{"amenity":"restaurant","cuisine":"indian","name":"Davanagere Benne dose"}},{"geometry":{"type":"Point","coordinates":[77.5837541,12.9983796]},"type":"Feature","properties":{"amenity":"restaurant","name":"Nandini palace"}},{"geometry":{"type":"Point","coordinates":[77.6077437,12.9945638]},"type":"Feature","properties":{"amenity":"restaurant","name":"Nandi"}},{"geometry":{"type":"Point","coordinates":[77.6081944,12.9955047]},"type":"Feature","properties":{"amenity":"restaurant","name":"Best of bengal"}},{"geometry":{"type":"Point","coordinates":[77.5961943,12.8846171]},"type":"Feature","properties":{"addr:city":"Bangalore","addr:postcode":560076,"amenity":"restaurant","name":"Aishwarya Parkland"}},{"geometry":{"type":"Point","coordinates":[77.5734435,12.9461645]},"type":"Feature","properties":{"amenity":"restaurant","cuisine":"vegetarian","name":"Jain Bhavan"}},{"geometry":{"type":"Point","coordinates":[77.5786471,12.9758817]},"type":"Feature","properties":{"amenity":"restaurant","name":"Kamat Yatrinivas"}},{"geometry":{"type":"Point","coordinates":[77.5982594,12.891297]},"type":"Feature","properties":{"amenity":"restaurant","cuisine":"indian","name":"Guru Garden Restaurant"}},{"geometry":{"type":"Point","coordinates":[77.5953143,12.8793881]},"type":"Feature","properties":{"amenity":"restaurant","building":"yes","cuisine":"kebab","name":"Kabab Masti"}},{"geometry":{"type":"Point","coordinates":[77.6955214,12.9787433]},"type":"Feature","properties":{"amenity":"restaurant","name":"Kabab Magic"}},{"geometry":{"type":"Point","coordinates":[77.5379367,12.9918351]},"type":"Feature","properties":{"amenity":"restaurant","cuisine":"indian","name":"Sarkar "}},{"geometry":{"type":"Point","coordinates":[77.5376631,12.9918273]},"type":"Feature","properties":{"amenity":"restaurant","cuisine":"pizza","name":"Dominos"}},{"geometry":{"type":"Point","coordinates":[77.5538099,12.9844649]},"type":"Feature","properties":{"amenity":"restaurant","cuisine":"indian","name":"Anand Bhavan"}},{"geometry":{"type":"Point","coordinates":[77.5466831,12.9972788]},"type":"Feature","properties":{"amenity":"restaurant","cuisine":"chinese","name":"Chowmein"}},{"geometry":{"type":"Point","coordinates":[77.5468223,12.9973049]},"type":"Feature","properties":{"amenity":"restaurant","cuisine":"chinese","name":"Chungs Chinese Corner"}},{"geometry":{"type":"Point","coordinates":[77.5472997,12.997676]},"type":"Feature","properties":{"amenity":"restaurant","cuisine":"indian","name":"New shanti Sagar"}},{"geometry":{"type":"Point","coordinates":[77.5617068,13.0293215]},"type":"Feature","properties":{"amenity":"restaurant","cuisine":"indian","name":"Chandrappa Hotel"}},{"geometry":{"type":"Point","coordinates":[77.5806103,13.0057409]},"type":"Feature","properties":{"amenity":"restaurant","cuisine":"indian","name":"Satvam"}},{"geometry":{"type":"Point","coordinates":[77.5553864,13.0103181]},"type":"Feature","properties":{"addr:city":"Bangalore","amenity":"restaurant","cuisine":"indian","name":"Zaffran"}},{"geometry":{"type":"Point","coordinates":[77.572845,13.0280016]},"type":"Feature","properties":{"alt_name":"Khushi multicuisine restaurant","amenity":"restaurant","cuisine":"indian","name":"Bhaga's"}},{"geometry":{"type":"Point","coordinates":[77.5733147,13.028135]},"type":"Feature","properties":{"amenity":"restaurant","cuisine":"international","name":"Jashn"}},{"geometry":{"type":"Point","coordinates":[77.5765414,13.0273274]},"type":"Feature","properties":{"amenity":"restaurant","cuisine":"indian","name":"Darasun"}},{"geometry":{"type":"Point","coordinates":[77.5668772,13.0323936]},"type":"Feature","properties":{"amenity":"restaurant","cuisine":"chicken","name":"Deccan House"}},{"geometry":{"type":"Point","coordinates":[77.7018535,12.9618402]},"type":"Feature","properties":{"amenity":"restaurant","name":"Ammi's Biryani"}},{"geometry":{"type":"Point","coordinates":[77.7013828,12.9617774]},"type":"Feature","properties":{"amenity":"restaurant","name":"Delhi Waale Sweets"}},{"geometry":{"type":"Point","coordinates":[77.7014948,12.9626081]},"type":"Feature","properties":{"amenity":"restaurant","cuisine":"pizza","name":"Dominos Pizza"}},{"geometry":{"type":"Point","coordinates":[77.7014185,12.9621049]},"type":"Feature","properties":{"amenity":"restaurant","name":"Just Bake"}},{"geometry":{"type":"Point","coordinates":[77.7017722,12.9593414]},"type":"Feature","properties":{"amenity":"restaurant","name":"Kabab Souq"}},{"geometry":{"type":"Point","coordinates":[77.7016821,12.9605015]},"type":"Feature","properties":{"amenity":"restaurant","name":"Nizam's Kitchen"}},{"geometry":{"type":"Point","coordinates":[77.6999807,12.9504583]},"type":"Feature","properties":{"amenity":"restaurant","name":"Sanjha Chulha"}},{"geometry":{"type":"Point","coordinates":[77.7017222,12.9651455]},"type":"Feature","properties":{"amenity":"restaurant","cuisine":"chinese","name":"Shogun"}},{"geometry":{"type":"Point","coordinates":[77.7017644,12.9567268]},"type":"Feature","properties":{"amenity":"restaurant","name":"Suchitra Biryani"}},{"geometry":{"type":"Point","coordinates":[77.7017308,12.9651886]},"type":"Feature","properties":{"amenity":"restaurant","name":"The Dhaba"}},{"geometry":{"type":"Point","coordinates":[77.70186,12.9616598]},"type":"Feature","properties":{"amenity":"restaurant","name":"The French Loaf"}},{"geometry":{"type":"Point","coordinates":[77.7013893,12.961824]},"type":"Feature","properties":{"amenity":"restaurant","cuisine":"pizza","name":"US Pizza"}},{"geometry":{"type":"Point","coordinates":[77.5958823,12.8766254]},"type":"Feature","properties":{"amenity":"restaurant","cuisine":"pizza","name":"Domino's Pizza","phone":918068886888,"website":"http://www.dominos.co.in/"}},{"geometry":{"type":"Point","coordinates":[77.5957831,12.8762432]},"type":"Feature","properties":{"amenity":"restaurant","cuisine":"indian","name":"Oye Amritsar","phone":918066490324}},{"geometry":{"type":"Point","coordinates":[77.5960602,12.8759927]},"type":"Feature","properties":{"amenity":"restaurant","cuisine":"indian","name":"Rajdhani Thali","website":"http://www.rajdhani.co.in/"}},{"geometry":{"type":"Point","coordinates":[77.5955916,12.8762457]},"type":"Feature","properties":{"amenity":"restaurant","name":"TGIF","operator":"international","website":"http://tgifindia.com/"}},{"geometry":{"type":"Point","coordinates":[77.5771125,12.9274214]},"type":"Feature","properties":{"amenity":"restaurant","cuisine":"italian","name":"Eurasia"}},{"geometry":{"type":"Point","coordinates":[77.6044847,12.9751724]},"type":"Feature","properties":{"amenity":"restaurant","cuisine":"indian","email":"cococo@gmail.com","name":"Coconut Grove","source":"survey"}},{"geometry":{"type":"Point","coordinates":[77.556674,13.0724465]},"type":"Feature","properties":{"amenity":"restaurant","name":"Adigas"}},{"geometry":{"type":"Point","coordinates":[77.5602409,13.0682528]},"type":"Feature","properties":{"amenity":"restaurant","name":"Durgashri Upahar"}},{"geometry":{"type":"Point","coordinates":[77.5580493,13.0753507]},"type":"Feature","properties":{"amenity":"restaurant","name":"Beijing Bites"}},{"geometry":{"type":"Point","coordinates":[77.5582233,13.0757648]},"type":"Feature","properties":{"amenity":"restaurant","name":"Ammi's Biryani"}},{"geometry":{"type":"Point","coordinates":[77.5561694,13.0720739]},"type":"Feature","properties":{"amenity":"restaurant","name":"Mr. Chef"}},{"geometry":{"type":"Point","coordinates":[77.595119,12.9055105]},"type":"Feature","properties":{"amenity":"restaurant","cuisine":"pizza","name":"Pizza Stop"}},{"geometry":{"type":"Point","coordinates":[77.595119,12.9056098]},"type":"Feature","properties":{"amenity":"restaurant","cuisine":"ice_cream","name":"Gelato"}},{"geometry":{"type":"Point","coordinates":[77.5968652,12.9064308]},"type":"Feature","properties":{"amenity":"restaurant","cuisine":"kebab","name":"Barbeque Nation","phone":918060600002,"website":"http://www.barbeque-nation.com/"}},{"geometry":{"type":"Point","coordinates":[77.5968786,12.9061458]},"type":"Feature","properties":{"amenity":"restaurant","cuisine":"pizza","name":"Dominos Pizza"}},{"geometry":{"type":"Point","coordinates":[77.5990109,12.9117616]},"type":"Feature","properties":{"amenity":"restaurant","cuisine":"regional","name":"MTR 1924"}},{"geometry":{"type":"Point","coordinates":[77.5859163,12.900538]},"type":"Feature","properties":{"amenity":"restaurant","name":"Grills and Rolls"}},{"geometry":{"type":"Point","coordinates":[77.6178957,12.8982417]},"type":"Feature","properties":{"amenity":"restaurant"}},{"geometry":{"type":"Point","coordinates":[77.6245476,12.9031858]},"type":"Feature","properties":{"amenity":"restaurant","cuisine":"indian","name":"Sri Krishna Upahara"}},{"geometry":{"type":"Point","coordinates":[77.6617313,12.8386446]},"type":"Feature","properties":{"amenity":"restaurant","cuisine":"indian","name":"EC1 Canteen"}},{"geometry":{"type":"Point","coordinates":[77.752121,12.9806255]},"type":"Feature","properties":{"amenity":"restaurant","cuisine":"international","name":"Te Papa"}},{"geometry":{"type":"Point","coordinates":[77.7520459,12.9795071]},"type":"Feature","properties":{"amenity":"restaurant","cuisine":"indian","name":"Zaffrani"}},{"geometry":{"type":"Point","coordinates":[77.6697286,12.9188125]},"type":"Feature","properties":{"amenity":"restaurant","name":"Dominos Pizza"}},{"geometry":{"type":"Point","coordinates":[77.6271801,12.904414]},"type":"Feature","properties":{"amenity":"restaurant","cuisine":"indian","name":"Karim Durbar"}},{"geometry":{"type":"Point","coordinates":[77.6259903,12.9112592]},"type":"Feature","properties":{"amenity":"restaurant"}},{"geometry":{"type":"Point","coordinates":[77.5848295,13.0229372]},"type":"Feature","properties":{"amenity":"restaurant","cuisine":"vegetarian","name":"Adyar Anand Bhavan"}},{"geometry":{"type":"Point","coordinates":[77.5881723,13.1005731]},"type":"Feature","properties":{"addr:postcode":560064,"amenity":"restaurant","cuisine":"indian","name":"Rathna Kushka Center"}},{"geometry":{"type":"Point","coordinates":[77.6606796,12.9941909]},"type":"Feature","properties":{"addr:city":"Bangalore","addr:housename":"The Bay, RMZ Infinity","addr:postcode":560016,"addr:street":"Swamy Vivekananda Road (Old Madras Road)","amenity":"restaurant","cuisine":"mexican","name":"California Burrito","website":"http://www.californiaburrito.in/"}},{"geometry":{"type":"Point","coordinates":[77.6612169,12.9928446]},"type":"Feature","properties":{"addr:city":"Bangalore","addr:housename":"Gopalan Signature Mall","addr:postcode":560016,"addr:street":"Swamy Vivekananda Road (Old Madras Road)","amenity":"restaurant","cuisine":"italian","name":"Benitos"}},{"geometry":{"type":"Point","coordinates":[77.6618587,12.9931243]},"type":"Feature","properties":{"addr:city":"Bangalore","addr:housename":"Ground Floor, Gopalan Signature Mall","addr:postcode":560016,"addr:street":"Swamy Vivekananda Road (Old Madras Road)","amenity":"restaurant","cuisine":"regional","name":"Mast Kalandar"}},{"geometry":{"type":"Point","coordinates":[77.5284077,12.9607284]},"type":"Feature","properties":{"addr:city":"Bangalore","addr:housename":"Opp HP Petrol Pump, Chandra Layout, Vijayanagar","addr:postcode":560040,"addr:street":"4th Main Road","amenity":"restaurant","name":"Ammi's Biryani"}},{"geometry":{"type":"Point","coordinates":[77.5300458,12.96063]},"type":"Feature","properties":{"addr:city":"Bangalore","addr:housename":"Chandra Layout","addr:postcode":560040,"addr:street":"4th Main Road","amenity":"restaurant","cuisine":"regional","name":"Koli Mane"}},{"geometry":{"type":"Point","coordinates":[77.537934,12.9728225]},"type":"Feature","properties":{"addr:city":"Bangalore","addr:housename":"Service Road, Near Vijayanagar Bus Stop, Vijayanagar","addr:postcode":560040,"addr:street":"Chord Road","amenity":"restaurant","cuisine":"Andhra","name":"Panchavati"}},{"geometry":{"type":"Point","coordinates":[77.5400275,12.9728774]},"type":"Feature","properties":{"addr:city":"Bangalore","addr:housename":"Vijayanagar","addr:postcode":560040,"addr:street":"5th Main","amenity":"restaurant","cuisine":"regional","name":"Imperial Plaza"}},{"geometry":{"type":"Point","coordinates":[77.5389814,12.9727493]},"type":"Feature","properties":{"addr:city":"Bangalore","addr:housename":"Above Food World, Vijayanagar","addr:postcode":560040,"addr:street":"Service Road","amenity":"restaurant","cuisine":"regional","name":"Gokul Veg"}},{"geometry":{"type":"Point","coordinates":[77.5554403,13.0106116]},"type":"Feature","properties":{"addr:city":"Bangalore","addr:housename":"Upper Ground Floow, Orion Mall","addr:housenumber":"UG09A","addr:street":"Dr. Rajkumar Road","amenity":"restaurant","cuisine":"sizzlers","name":"Kobe"}},{"geometry":{"type":"Point","coordinates":[77.5553824,13.0102544]},"type":"Feature","properties":{"addr:city":"Bangalore","addr:housename":"Upper Ground Floow, Orion Mall","addr:housenumber":"UG09","addr:street":"Dr. Rajkumar Road","amenity":"restaurant","cuisine":"thai","name":"Mai Tai"}},{"geometry":{"type":"Point","coordinates":[77.5553907,13.0118196]},"type":"Feature","properties":{"addr:city":"Bangalore","addr:housename":"Upper Gground Floor, Orion Mall","addr:housenumber":"UG20","addr:street":"Dr. Rajkumar Road","amenity":"restaurant","name":"Zaffron"}},{"geometry":{"type":"Point","coordinates":[77.5554128,13.0115699]},"type":"Feature","properties":{"addr:city":"Bangalore","addr:housename":"Upper Gground Floor, Orion Mall","addr:housenumber":"UG24","addr:street":"Dr. Rajkumar Road","amenity":"restaurant","cuisine":"chinese","name":"Mainland China"}},{"geometry":{"type":"Point","coordinates":[77.5553553,13.0114881]},"type":"Feature","properties":{"addr:city":"Bangalore","addr:housename":"Upper Gground Floor, Orion Mall","addr:housenumber":"UG27","addr:street":"Dr. Rajkumar Road","amenity":"restaurant","name":"Vinegar"}},{"geometry":{"type":"Point","coordinates":[77.5374974,12.9886873]},"type":"Feature","properties":{"addr:city":"Bangalore","addr:housename":"Above McDonalds, Havanur Circle, Basaveshwaranagar","addr:street":"1st main Basaveshwaranagar","amenity":"restaurant","name":"Golden Grill"}},{"geometry":{"type":"Point","coordinates":[77.6083858,12.9822576]},"type":"Feature","properties":{"addr:city":"Bangalore","addr:housename":"Shivajinagar","addr:street":"Commercial Street","amenity":"restaurant","cuisine":"regional","name":"Shiv Sagar"}},{"geometry":{"type":"Point","coordinates":[77.5795358,12.8918378]},"type":"Feature","properties":{"amenity":"restaurant","cuisine":"indian","name":"Mayia Express"}},{"geometry":{"type":"Point","coordinates":[77.5821609,12.8905775]},"type":"Feature","properties":{"amenity":"restaurant","cuisine":"indian","name":"Mastkalandar"}},{"geometry":{"type":"Point","coordinates":[77.7117491,12.9557871]},"type":"Feature","properties":{"amenity":"restaurant","name":"Bageecha Family Restaurant","phone":"+91 80 2852 5124","website":"http://www.bageecha.net.in/"}},{"geometry":{"type":"Point","coordinates":[77.7152773,12.9546737]},"type":"Feature","properties":{"amenity":"restaurant","cuisine":"Bengali","name":"Deckers Lane"}},{"geometry":{"type":"Point","coordinates":[77.5742352,12.9787017]},"type":"Feature","properties":{"addr:city":"Gandhi Nagar, Bangalore","addr:street":"4th Cross","amenity":"restaurant","cuisine":"regional","name":"Gandharva Upahara"}},{"geometry":{"type":"Point","coordinates":[77.543367,12.9737304]},"type":"Feature","properties":{"addr:city":"Bangalore","addr:housename":"Above Citi Bank ATM, Vijayanagar","addr:street":"Chord Road","amenity":"restaurant","name":"Hotel Savaji's"}},{"geometry":{"type":"Point","coordinates":[77.5287669,12.9606895]},"type":"Feature","properties":{"addr:city":"Bangalore","addr:housename":"Chandra Layout","addr:street":"4th Main Road","amenity":"restaurant","cuisine":"chinese","name":"Beijing Bites"}},{"geometry":{"type":"Point","coordinates":[77.3921775,12.8002269]},"type":"Feature","properties":{"amenity":"restaurant","cuisine":"indian;regional","internet_access":"no","name":"Shivadarshini Thatte Idli Special Hotel","opening_hours":"Mo-Fr 08:30-20:00","operator":"Private"}},{"geometry":{"type":"Point","coordinates":[77.6211184,12.9338394]},"type":"Feature","properties":{"amenity":"restaurant","cuisine":"indian","name":"Nagarjuna"}},{"geometry":{"type":"Point","coordinates":[77.5509118,12.9984652]},"type":"Feature","properties":{"amenity":"restaurant","cuisine":"regional","name":"Prashanth Hotel","name:kn":" ","user_defined":"Restaurant"}},{"geometry":{"type":"Point","coordinates":[77.5756631,13.1070925]},"type":"Feature","properties":{"amenity":"restaurant","name":"Sri Ganesh Bake Paradise"}},{"geometry":{"type":"Point","coordinates":[77.6229717,12.9305918]},"type":"Feature","properties":{"amenity":"restaurant","cuisine":"indian","name":"Sagar Fast Food"}},{"geometry":{"type":"Point","coordinates":[77.5047776,12.9294502]},"type":"Feature","properties":{"addr:city":"Bangalore","addr:housename":"8th mile mysore road Bangalore- 560059","addr:housenumber":8,"addr:postcode":560059,"addr:street":"Mysore Road","amenity":"restaurant","name":"Restaurants beijing"}},{"geometry":{"type":"Point","coordinates":[77.5050093,12.9303175]},"type":"Feature","properties":{"addr:city":"Bangalore","addr:housename":"8th mile mysore road Bangalore- 560059","addr:housenumber":8,"addr:postcode":560059,"addr:street":"Mysore Road","amenity":"restaurant","name":"Restaurants beijing"}},{"geometry":{"type":"Point","coordinates":[77.6480359,12.9689343]},"type":"Feature","properties":{"amenity":"restaurant","cuisine":"indian","name":"Mani's Dum Briyani"}},{"geometry":{"type":"Point","coordinates":[77.6217071,12.8985744]},"type":"Feature","properties":{"amenity":"restaurant","cuisine":"indian","name":"Ammi's Biryani"}},{"geometry":{"type":"Point","coordinates":[77.725117,12.9557265]},"type":"Feature","properties":{"amenity":"restaurant","cuisine":"international","name":"Sigree Global Grill"}},{"geometry":{"type":"Point","coordinates":[77.7655083,13.0208639]},"type":"Feature","properties":{"amenity":"restaurant","capacity":50,"name":"Wild Beans"}},{"geometry":{"type":"Point","coordinates":[77.5949458,12.9655171]},"type":"Feature","properties":{"amenity":"restaurant","cuisine":"vegetarian","name":"Woody's"}}],"bbox":[77.35,12.75,77.85,13.23]}